"Address","Street #","Street Name","Street suffix","Unit #","ZIP","unit_id"
"39 A Street #6 02127","39","A","Street","6","02127","#6"
"39 A Street #10 02127","39","A","Street","10","02127","#10"
"39 A Street #15 02127","39","A","Street","15","02127","#15"
"80 A Street #5 02127","80","A","Street","5","02127","#5"
"319 A Street #203 02210","319","A","Street","203","02210","#203"
"319 A Street #209 02210","319","A","Street","209","02210","#209"
"319 A Street #304 02210","319","A","Street","304","02210","#304"
"319 A Street #312 02210","319","A","Street","312","02210","#312"
"615 Adams Street #A 02124","615","Adams","Street","A","02124","#A"
"1241 Adams Street #F104 02124","1241","Adams","Street","F104","02124","#F104"
"1241 Adams Street #F105 02124","1241","Adams","Street","F105","02124","#F105"
"1241 Adams Street #F107 02124","1241","Adams","Street","F107","02124","#F107"
"1241 Adams Street #F204 02124","1241","Adams","Street","F204","02124","#F204"
"1241 Adams Street #F205 02124","1241","Adams","Street","F205","02124","#F205"
"1241 Adams Street #F207 02124","1241","Adams","Street","F207","02124","#F207"
"1241 Adams Street #F304 02124","1241","Adams","Street","F304","02124","#F304"
"1241 Adams Street #F305 02124","1241","Adams","Street","F305","02124","#F305"
"1241 Adams Street #F307 02124","1241","Adams","Street","F307","02124","#F307"
"1241 Adams Street #F405 02124","1241","Adams","Street","F405","02124","#F405"
"1243 Adams Street #PM104 02124","1243","Adams","Street","PM104","02124","#PM104"
"1243 Adams Street #PM204 02124","1243","Adams","Street","PM204","02124","#PM204"
"1243 Adams Street #PM205 02124","1243","Adams","Street","PM205","02124","#PM205"
"1243 Adams Street #PM304 02124","1243","Adams","Street","PM304","02124","#PM304"
"1243 Adams Street #PM305 02124","1243","Adams","Street","PM305","02124","#PM305"
"1241-1255 Adams Street #103 02124","1241-1255","Adams","Street","103","02124","#103"
"1241-1255 Adams Street #104 02124","1241-1255","Adams","Street","104","02124","#104"
"1241-1255 Adams Street #206 02124","1241-1255","Adams","Street","206","02124","#206"
"1241-1255 Adams Street #209 02124","1241-1255","Adams","Street","209","02124","#209"
"1241-1255 Adams Street #302 02124","1241-1255","Adams","Street","302","02124","#302"
"1241-1255 Adams Street #305 02124","1241-1255","Adams","Street","305","02124","#305"
"1241-1255 Adams Street #402 02124","1241-1255","Adams","Street","402","02124","#402"
"1241-1255 Adams Street #505 02124","1241-1255","Adams","Street","505","02124","#505"
"82 Alleghany Street #NA 02127","82","Alleghany","Street",NA,"02127","#NA"
"84 Alleghany Street #NA 02127","84","Alleghany","Street",NA,"02127","#NA"
"25 Alpine Street #2 02136","25","Alpine","Street","2","02136","#2"
"25 Alpine Street #5 02136","25","Alpine","Street","5","02136","#5"
"25 Alpine Street #23 02134","25","Alpine","Street","23","02134","#23"
"25 Alpine Street #27 02128","25","Alpine","Street","27","02128","#27"
"30 B Street #202 02127","30","B","Street","202","02127","#202"
"125 B Street #1D 02127","125","B","Street","1D","02127","#1D"
"125 B Street #3C 02127","125","B","Street","3C","02127","#3C"
"141 B Street #2 02127","141","B","Street","2","02127","#2"
"32 Baldwin Street #NA 02129","32","Baldwin","Street",NA,"02129","#NA"
"34 Baldwin Street #NA 02129","34","Baldwin","Street",NA,"02129","#NA"
"40 Baldwin Street #NA 02129","40","Baldwin","Street",NA,"02129","#NA"
"42 Baldwin Street #NA 02129","42","Baldwin","Street",NA,"02129","#NA"
"111 Beach Street #2F 02134","111","Beach","Street","2F","02134","#2F"
"111 Beach Street #3F 02134","111","Beach","Street","3F","02134","#3F"
"111 Beach Street #3G 02128","111","Beach","Street","3G","02128","#3G"
"42-44 Beach Street #4A 02111","42-44","Beach","Street","4A","02111","#4A"
"42-44 Beach Street #4C 02111","42-44","Beach","Street","4C","02111","#4C"
"42-44 Beach Street #5A 02111","42-44","Beach","Street","5A","02111","#5A"
"2400 Beacon Street #111 02467","2400","Beacon","Street","111","02467","#111"
"2400 Beacon Street #205 02467","2400","Beacon","Street","205","02467","#205"
"2400 Beacon Street #206 02467","2400","Beacon","Street","206","02467","#206"
"2400 Beacon Street #207 02467","2400","Beacon","Street","207","02467","#207"
"2400 Beacon Street #212 02467","2400","Beacon","Street","212","02467","#212"
"2400 Beacon Street #214 02467","2400","Beacon","Street","214","02467","#214"
"2400 Beacon Street #305 02467","2400","Beacon","Street","305","02467","#305"
"2400 Beacon Street #306 02467","2400","Beacon","Street","306","02467","#306"
"2400 Beacon Street #314 02467","2400","Beacon","Street","314","02467","#314"
"2400 Beacon Street #413 02467","2400","Beacon","Street","413","02467","#413"
"2400 Beacon Street #513 02467","2400","Beacon","Street","513","02467","#513"
"142 Bigelow Street #101 02135","142","Bigelow","Street","101","02135","#101"
"142 Bigelow Street #205 02135","142","Bigelow","Street","205","02135","#205"
"142 Bigelow Street #302 02135","142","Bigelow","Street","302","02135","#302"
"564 Blue Hill Avenue #1 02121","564","Blue Hill","Avenue","1","02121","#1"
"564 Blue Hill Avenue #2 02121","564","Blue Hill","Avenue","2","02121","#2"
"564 Blue Hill Avenue #4 02121","564","Blue Hill","Avenue","4","02121","#4"
"10 Bowdoin Street #6 02130","10","Bowdoin","Street","6","02130","#6"
"10 Bowdoin Street #203 02129","10","Bowdoin","Street","203","02129","#203"
"10 Bowdoin Street #204 02129","10","Bowdoin","Street","204","02129","#204"
"10 Bowdoin Street #205 02127","10","Bowdoin","Street","205","02127","#205"
"10 Bowdoin Street #206 02127","10","Bowdoin","Street","206","02127","#206"
"10 Bowdoin Street #208 02127","10","Bowdoin","Street","208","02127","#208"
"10 Bowdoin Street #209 02114","10","Bowdoin","Street","209","02114","#209"
"10 Bowdoin Street #214 02114","10","Bowdoin","Street","214","02114","#214"
"10 Bowdoin Street #302 02135","10","Bowdoin","Street","302","02135","#302"
"10 Bowdoin Street #308 02135","10","Bowdoin","Street","308","02135","#308"
"10 Bowdoin Street #309 02114","10","Bowdoin","Street","309","02114","#309"
"10 Bowdoin Street #313 02114","10","Bowdoin","Street","313","02114","#313"
"10 Bowdoin Street #315 02108","10","Bowdoin","Street","315","02108","#315"
"10 Bowdoin Street #316 02135","10","Bowdoin","Street","316","02135","#316"
"10 Bowdoin Street #404 02114","10","Bowdoin","Street","404","02114","#404"
"10 Bowdoin Street #410 02114","10","Bowdoin","Street","410","02114","#410"
"10 Bowdoin Street #414 02135","10","Bowdoin","Street","414","02135","#414"
"10 Bowdoin Street #502 02135","10","Bowdoin","Street","502","02135","#502"
"70 Bremen Street #203 02128","70","Bremen","Street","203","02128","#203"
"70 Bremen Street #208 02128","70","Bremen","Street","208","02128","#208"
"70 Bremen Street #301 02128","70","Bremen","Street","301","02128","#301"
"70 Bremen Street #403 02128","70","Bremen","Street","403","02128","#403"
"70 Bremen Street #504 02128","70","Bremen","Street","504","02128","#504"
"80 Broad Street #206 02110","80","Broad","Street","206","02110","#206"
"80 Broad Street #506 02110","80","Broad","Street","506","02110","#506"
"80 Broad Street #709 02110","80","Broad","Street","709","02110","#709"
"110 Broad Street #Loft 1 02110","110","Broad","Street","Loft 1","02110","#Loft 1"
"110 Broad Street #Loft 2 02110","110","Broad","Street","Loft 2","02110","#Loft 2"
"110 Broad Street #Loft 3 02110","110","Broad","Street","Loft 3","02110","#Loft 3"
"110 Broad Street #Loft 4 02110","110","Broad","Street","Loft 4","02110","#Loft 4"
"110 Broad Street #Loft 5 02110","110","Broad","Street","Loft 5","02110","#Loft 5"
"188 Brookline Avenue #19F 02215","188","Brookline","Avenue","19F","02215","#19F"
"374-398 Bunker Hill Street #103 02129","374-398","Bunker Hill","Street","103","02129","#103"
"374-398 Bunker Hill Street #105 02129","374-398","Bunker Hill","Street","105","02129","#105"
"374-398 Bunker Hill Street #109 02129","374-398","Bunker Hill","Street","109","02129","#109"
"374-398 Bunker Hill Street #114 02129","374-398","Bunker Hill","Street","114","02129","#114"
"374-398 Bunker Hill Street #204 02129","374-398","Bunker Hill","Street","204","02129","#204"
"374-398 Bunker Hill Street #216 02129","374-398","Bunker Hill","Street","216","02129","#216"
"73 Burroughs Street #G 02130","73","Burroughs","Street","G","02130","#G"
"18 Business Terrace #18 02136","18","Business","Terrace","18","02136","#18"
"29 Business Terrace #29 02136","29","Business","Terrace","29","02136","#29"
"16A Business Terrace #16A 02136","16A","Business","Terrace","16A","02136","#16A"
"60A Business Terrace #60A 02136","60A","Business","Terrace","60A","02136","#60A"
"533 Cambridge Street #104 02134","533","Cambridge","Street","104","02134","#104"
"533 Cambridge Street #109 02134","533","Cambridge","Street","109","02134","#109"
"533 Cambridge Street #202 02134","533","Cambridge","Street","202","02134","#202"
"533 Cambridge Street #210 02134","533","Cambridge","Street","210","02134","#210"
"533 Cambridge Street #305 02134","533","Cambridge","Street","305","02134","#305"
"533 Cambridge Street #308 02134","533","Cambridge","Street","308","02134","#308"
"327 Centre Street #206 02130","327","Centre","Street","206","02130","#206"
"319-329A Centre Street #303 02130","319-329A","Centre","Street","303","02130","#303"
"35 Channel Center Street #203 02210","35","Channel Center","Street","203","02210","#203"
"35 Channel Center Street #207 02210","35","Channel Center","Street","207","02210","#207"
"35 Channel Center Street #208 02210","35","Channel Center","Street","208","02210","#208"
"35 Channel Center Street #304 02210","35","Channel Center","Street","304","02210","#304"
"35 Channel Center Street #309 02210","35","Channel Center","Street","309","02210","#309"
"35 Channel Center Street #408 02210","35","Channel Center","Street","408","02210","#408"
"5 Charles Street #NA 02129","5","Charles","Street",NA,"02129","#NA"
"9 Charles Street #NA 02129","9","Charles","Street",NA,"02129","#NA"
"17 Charles Street #A6 02129","17","Charles","Street","A6","02129","#A6"
"42 Chauncy Street #2C 02110","42","Chauncy","Street","2C","02110","#2C"
"42 Chauncy Street #2D 02111","42","Chauncy","Street","2D","02111","#2D"
"42 Chauncy Street #3D 02111","42","Chauncy","Street","3D","02111","#3D"
"42 Chauncy Street #4D 02111","42","Chauncy","Street","4D","02111","#4D"
"65 Chelsea Street #C1-103 02129","65","Chelsea","Street","C1-103","02129","#C1-103"
"65 Chelsea Street #C1-203 02129","65","Chelsea","Street","C1-203","02129","#C1-203"
"65 Chelsea Street #C1-204 02129","65","Chelsea","Street","C1-204","02129","#C1-204"
"65 Chelsea Street #C1-205 02129","65","Chelsea","Street","C1-205","02129","#C1-205"
"65 Chelsea Street #C1-304 02129","65","Chelsea","Street","C1-304","02129","#C1-304"
"65 Chelsea Street #C1-305 02129","65","Chelsea","Street","C1-305","02129","#C1-305"
"73 Chelsea Street #C2-103 02129","73","Chelsea","Street","C2-103","02129","#C2-103"
"73 Chelsea Street #C2-203 02129","73","Chelsea","Street","C2-203","02129","#C2-203"
"73 Chelsea Street #C2-204 02129","73","Chelsea","Street","C2-204","02129","#C2-204"
"73 Chelsea Street #C2-205 02129","73","Chelsea","Street","C2-205","02129","#C2-205"
"73 Chelsea Street #C2-304 02129","73","Chelsea","Street","C2-304","02129","#C2-304"
"73 Chelsea Street #C2-305 02129","73","Chelsea","Street","C2-305","02129","#C2-305"
"2 Chestnut Street #NA 02129","2","Chestnut","Street",NA,"02129","#NA"
"4 Chestnut Street #NA 02129","4","Chestnut","Street",NA,"02129","#NA"
"6 Chestnut Street #NA 02129","6","Chestnut","Street",NA,"02129","#NA"
"8 Chestnut Street #NA 02129","8","Chestnut","Street",NA,"02129","#NA"
"10 Chestnut Street #NA 02129","10","Chestnut","Street",NA,"02129","#NA"
"12 Chestnut Street #NA 02129","12","Chestnut","Street",NA,"02129","#NA"
"99 Chestnut Hill Avenue #102 02135","99","Chestnut Hill","Avenue","102","02135","#102"
"99 Chestnut Hill Avenue #104 02135","99","Chestnut Hill","Avenue","104","02135","#104"
"163 Chestnut Hill Avenue #102 02128","163","Chestnut Hill","Avenue","102","02128","#102"
"163 Chestnut Hill Avenue #204 02128","163","Chestnut Hill","Avenue","204","02128","#204"
"163 Chestnut Hill Avenue #301 02134","163","Chestnut Hill","Avenue","301","02134","#301"
"165 Chestnut Hill Avenue #8 02135","165","Chestnut Hill","Avenue","8","02135","#8"
"23A Circuit Street #23-2 02119","23A","Circuit","Street","23-2","02119","#23-2"
"23B Circuit Street #23-1 02119","23B","Circuit","Street","23-1","02119","#23-1"
"27A Circuit Street #27-2 02119","27A","Circuit","Street","27-2","02119","#27-2"
"37B Circuit Street #37-1 02119","37B","Circuit","Street","37-1","02119","#37-1"
"39A Circuit Street #39-2 02119","39A","Circuit","Street","39-2","02119","#39-2"
"39B Circuit Street #39-1 02119","39B","Circuit","Street","39-1","02119","#39-1"
"41A Circuit Street #41-2 02119","41A","Circuit","Street","41-2","02119","#41-2"
"41B Circuit Street #41-1 02119","41B","Circuit","Street","41-1","02119","#41-1"
"47A Circuit Street #47-2 02119","47A","Circuit","Street","47-2","02119","#47-2"
"47B Circuit Street #47-1 02119","47B","Circuit","Street","47-1","02119","#47-1"
"6 Clarendon Street #301 02116","6","Clarendon","Street","301","02116","#301"
"14 Clarendon Street #201 02116","14","Clarendon","Street","201","02116","#201"
"14 Clarendon Street #301 02116","14","Clarendon","Street","301","02116","#301"
"14 Clarendon Street #401 02116","14","Clarendon","Street","401","02116","#401"
"71 Cliffmont Street #NA 02131","71","Cliffmont","Street",NA,"02131","#NA"
"73 Cliffmont Street #NA 02131","73","Cliffmont","Street",NA,"02131","#NA"
"1306 Columbia Road #1B 02127","1306","Columbia","Road","1B","02127","#1B"
"1306 Columbia Road #1D 02127","1306","Columbia","Road","1D","02127","#1D"
"285 Columbus Avenue #201 02116","285","Columbus","Avenue","201","02116","#201"
"285 Columbus Avenue #202 02116","285","Columbus","Avenue","202","02116","#202"
"285 Columbus Avenue #209 02116","285","Columbus","Avenue","209","02116","#209"
"285 Columbus Avenue #301 02116","285","Columbus","Avenue","301","02116","#301"
"285 Columbus Avenue #304 02116","285","Columbus","Avenue","304","02116","#304"
"285 Columbus Avenue #308 02116","285","Columbus","Avenue","308","02116","#308"
"285 Columbus Avenue #402 02116","285","Columbus","Avenue","402","02116","#402"
"285 Columbus Avenue #403 02116","285","Columbus","Avenue","403","02116","#403"
"352 Columbus Avenue #5 02116","352","Columbus","Avenue","5","02116","#5"
"354 Columbus Avenue #3 02116","354","Columbus","Avenue","3","02116","#3"
"356 Columbus Avenue #4 02116","356","Columbus","Avenue","4","02116","#4"
"301-319 Columbus Avenue #201 02127","301-319","Columbus","Avenue","201","02127","#201"
"301-319 Columbus Avenue #202 02116","301-319","Columbus","Avenue","202","02116","#202"
"440 Commercial Street #203 02109","440","Commercial","Street","203","02109","#203"
"440 Commercial Street #303 02109","440","Commercial","Street","303","02109","#303"
"1650 Commonwealth Avenue #201 02135","1650","Commonwealth","Avenue","201","02135","#201"
"1650 Commonwealth Avenue #307 02135","1650","Commonwealth","Avenue","307","02135","#307"
"1650 Commonwealth Avenue #401 02135","1650","Commonwealth","Avenue","401","02135","#401"
"1650 Commonwealth Avenue #502 02135","1650","Commonwealth","Avenue","502","02135","#502"
"1650 Commonwealth Avenue #601 02135","1650","Commonwealth","Avenue","601","02135","#601"
"346-354 Congress Street #102 02210","346-354","Congress","Street","102","02210","#102"
"346-354 Congress Street #104 02210","346-354","Congress","Street","104","02210","#104"
"346-354 Congress Street #106 02210","346-354","Congress","Street","106","02210","#106"
"346-354 Congress Street #201 02210","346-354","Congress","Street","201","02210","#201"
"346-354 Congress Street #303 02210","346-354","Congress","Street","303","02210","#303"
"346-354 Congress Street #314 02210","346-354","Congress","Street","314","02210","#314"
"346-354 Congress Street #416 02210","346-354","Congress","Street","416","02210","#416"
"346-354 Congress Street #514 02210","346-354","Congress","Street","514","02210","#514"
"65 Cornwall Street #110 02130","65","Cornwall","Street","110","02130","#110"
"65 Cornwall Street #204 02130","65","Cornwall","Street","204","02130","#204"
"65 Cornwall Street #208 02130","65","Cornwall","Street","208","02130","#208"
"345 D Street #2 02127","345","D","Street","2","02127","#2"
"12 Dacy Street #11 02136","12","Dacy","Street","11","02136","#11"
"25 Dale Street #1 02119","25","Dale","Street","1","02119","#1"
"25 Dale Street #2 02119","25","Dale","Street","2","02119","#2"
"25 Dale Street #3 02119","25","Dale","Street","3","02119","#3"
"25 Dale Street #4 02119","25","Dale","Street","4","02119","#4"
"141 Dorchester Avenue #104 02127","141","Dorchester","Avenue","104","02127","#104"
"141 Dorchester Avenue #110 02127","141","Dorchester","Avenue","110","02127","#110"
"141 Dorchester Avenue #114 02127","141","Dorchester","Avenue","114","02127","#114"
"141 Dorchester Avenue #203 02127","141","Dorchester","Avenue","203","02127","#203"
"141 Dorchester Avenue #205 02127","141","Dorchester","Avenue","205","02127","#205"
"141 Dorchester Avenue #208 02127","141","Dorchester","Avenue","208","02127","#208"
"141 Dorchester Avenue #218 02127","141","Dorchester","Avenue","218","02127","#218"
"141 Dorchester Avenue #304 02127","141","Dorchester","Avenue","304","02127","#304"
"141 Dorchester Avenue #305 02127","141","Dorchester","Avenue","305","02127","#305"
"141 Dorchester Avenue #310 02127","141","Dorchester","Avenue","310","02127","#310"
"141 Dorchester Avenue #311 02127","141","Dorchester","Avenue","311","02127","#311"
"141 Dorchester Avenue #316 02127","141","Dorchester","Avenue","316","02127","#316"
"141 Dorchester Avenue #403 02127","141","Dorchester","Avenue","403","02127","#403"
"141 Dorchester Avenue #404 02127","141","Dorchester","Avenue","404","02127","#404"
"141 Dorchester Avenue #407 02127","141","Dorchester","Avenue","407","02127","#407"
"141 Dorchester Avenue #418 02127","141","Dorchester","Avenue","418","02127","#418"
"141 Dorchester Avenue #505 02127","141","Dorchester","Avenue","505","02127","#505"
"141 Dorchester Avenue #514 02127","141","Dorchester","Avenue","514","02127","#514"
"141 Dorchester Avenue #604 02127","141","Dorchester","Avenue","604","02127","#604"
"141 Dorchester Avenue #LW-201 02127","141","Dorchester","Avenue","LW-201","02127","#LW-201"
"150 Dorchester Avenue #103 02127","150","Dorchester","Avenue","103","02127","#103"
"150 Dorchester Avenue #205 02127","150","Dorchester","Avenue","205","02127","#205"
"150 Dorchester Avenue #208 02727","150","Dorchester","Avenue","208","02727","#208"
"150 Dorchester Avenue #303 02127","150","Dorchester","Avenue","303","02127","#303"
"150 Dorchester Avenue #306 02127","150","Dorchester","Avenue","306","02127","#306"
"150 Dorchester Avenue #402 02127","150","Dorchester","Avenue","402","02127","#402"
"225 Dorchester Street #12 02127","225","Dorchester","Street","12","02127","#12"
"225 Dorchester Street #17 02127","225","Dorchester","Street","17","02127","#17"
"225 Dorchester Street #23 02127","225","Dorchester","Street","23","02127","#23"
"225 Dorchester Street #28 02127","225","Dorchester","Street","28","02127","#28"
"488 Dorchester Avenue #2F 02127","488","Dorchester","Avenue","2F","02127","#2F"
"488 Dorchester Avenue #2J 02127","488","Dorchester","Avenue","2J","02127","#2J"
"488 Dorchester Avenue #3E 02127","488","Dorchester","Avenue","3E","02127","#3E"
"488 Dorchester Avenue #3H 02127","488","Dorchester","Avenue","3H","02127","#3H"
"944 Dorchester Avenue #6 02125","944","Dorchester","Avenue","6","02125","#6"
"944 Dorchester Avenue #14 02125","944","Dorchester","Avenue","14","02125","#14"
"944 Dorchester Avenue #16 02125","944","Dorchester","Avenue","16","02125","#16"
"944 Dorchester Avenue #24 02125","944","Dorchester","Avenue","24","02125","#24"
"944 Dorchester Avenue #26 02125","944","Dorchester","Avenue","26","02125","#26"
"944 Dorchester Avenue #27 02125","944","Dorchester","Avenue","27","02125","#27"
"944 Dorchester Avenue #31 02125","944","Dorchester","Avenue","31","02125","#31"
"944 Dorchester Avenue #32 02125","944","Dorchester","Avenue","32","02125","#32"
"950 Dorchester Avenue #203 02125","950","Dorchester","Avenue","203","02125","#203"
"950 Dorchester Avenue #206 02125","950","Dorchester","Avenue","206","02125","#206"
"148-152 Dorchester Street #111 02127","148-152","Dorchester","Street","111","02127","#111"
"148-152 Dorchester Street #210 02127","148-152","Dorchester","Street","210","02127","#210"
"148-152 Dorchester Street #311 02127","148-152","Dorchester","Street","311","02127","#311"
"148-152 Dorchester Street #414 02127","148-152","Dorchester","Street","414","02127","#414"
"1971-1977 Dorchester Avenue #5003 02124","1971-1977","Dorchester","Avenue","5003","02124","#5003"
"1971-1977 Dorchester Avenue #5009 02124","1971-1977","Dorchester","Avenue","5009","02124","#5009"
"1971-1977 Dorchester Avenue #5016 02124","1971-1977","Dorchester","Avenue","5016","02124","#5016"
"1971-1977 Dorchester Avenue #6016 02124","1971-1977","Dorchester","Avenue","6016","02124","#6016"
"3F Dorchester Street #NA 02127","3F","Dorchester","Street",NA,"02127","#NA"
"205 E Street #18S 02127","205","E","Street","18S","02127","#18S"
"205 E Street #1N 02127","205","E","Street","1N","02127","#1N"
"205 E Street #4S 02127","205","E","Street","4S","02127","#4S"
"205 E Street #7N 02127","205","E","Street","7N","02127","#7N"
"309 E Street #26 02127","309","E","Street","26","02127","#26"
"309 E Street #34 02127","309","E","Street","34","02127","#34"
"69 East Berkeley Street #69-4 02118","69","East Berkeley","Street","69-4","02118","#69-4"
"69 East Berkeley Street #69-7 02118","69","East Berkeley","Street","69-7","02118","#69-7"
"73 East Berkeley Street #73-1 02118","73","East Berkeley","Street","73-1","02118","#73-1"
"73 East Berkeley Street #73-2 02118","73","East Berkeley","Street","73-2","02118","#73-2"
"73 East Berkeley Street #73-4 02118","73","East Berkeley","Street","73-4","02118","#73-4"
"73 East Berkeley Street #73-5 02118","73","East Berkeley","Street","73-5","02118","#73-5"
"73 East Berkeley Street #73-6 02118","73","East Berkeley","Street","73-6","02118","#73-6"
"73 East Berkeley Street #73-7 02118","73","East Berkeley","Street","73-7","02118","#73-7"
"77 East Berkeley Street #77-1 02118","77","East Berkeley","Street","77-1","02118","#77-1"
"77 East Berkeley Street #77-10 02118","77","East Berkeley","Street","77-10","02118","#77-10"
"77 East Berkeley Street #77-2 02118","77","East Berkeley","Street","77-2","02118","#77-2"
"77 East Berkeley Street #77-6 02118","77","East Berkeley","Street","77-6","02118","#77-6"
"77 East Berkeley Street #77-7 02118","77","East Berkeley","Street","77-7","02118","#77-7"
"77 East Berkeley Street #77-8 02118","77","East Berkeley","Street","77-8","02118","#77-8"
"77 East Berkeley Street #77-9 02118","77","East Berkeley","Street","77-9","02118","#77-9"
"81 East Berkeley Street #81-1 02118","81","East Berkeley","Street","81-1","02118","#81-1"
"81 East Berkeley Street #81-2 02118","81","East Berkeley","Street","81-2","02118","#81-2"
"81 East Berkeley Street #81-3 02118","81","East Berkeley","Street","81-3","02118","#81-3"
"81 East Berkeley Street #81-4 02118","81","East Berkeley","Street","81-4","02118","#81-4"
"81 East Berkeley Street #81-5 02118","81","East Berkeley","Street","81-5","02118","#81-5"
"81 East Berkeley Street #81-6 02118","81","East Berkeley","Street","81-6","02118","#81-6"
"81 East Berkeley Street #81-7 02118","81","East Berkeley","Street","81-7","02118","#81-7"
"139 East Berkeley Street #101 02118","139","East Berkeley","Street","101","02118","#101"
"139 East Berkeley Street #102 02118","139","East Berkeley","Street","102","02118","#102"
"82-84 East Brookline Street #4 02118","82-84","East Brookline","Street","4","02118","#4"
"621 East First Street #A-1 02127","621","East First","Street","A-1","02127","#A-1"
"621 East First Street #A-7 02127","621","East First","Street","A-7","02127","#A-7"
"621 East First Street #B-3 02127","621","East First","Street","B-3","02127","#B-3"
"621 East First Street #B-4 02127","621","East First","Street","B-4","02127","#B-4"
"606 East Fourth Street #102 02127","606","East Fourth","Street","102","02127","#102"
"606 East Fourth Street #204 02127","606","East Fourth","Street","204","02127","#204"
"616 East Fourth Street #101 02127","616","East Fourth","Street","101","02127","#101"
"616 East Fourth Street #103 02127","616","East Fourth","Street","103","02127","#103"
"616 East Fourth Street #206 02210","616","East Fourth","Street","206","02210","#206"
"525 East Second Street #4 02127","525","East Second","Street","4","02127","#4"
"655 East Second Street #105 02127","655","East Second","Street","105","02127","#105"
"655 East Second Street #109 02127","655","East Second","Street","109","02127","#109"
"881 East Second Street #3 02127","881","East Second","Street","3","02127","#3"
"881 East Second Street #8 02127","881","East Second","Street","8","02127","#8"
"10 East Springfield Street #2 02118","10","East Springfield","Street","2","02118","#2"
"770 East Third Street #4 02127","770","East Third","Street","4","02127","#4"
"772 East Third Street #4 02127","772","East Third","Street","4","02127","#4"
"181 Essex Street #E-203 02111","181","Essex","Street","E-203","02111","#E-203"
"181 Essex Street #E-301 02111","181","Essex","Street","E-301","02111","#E-301"
"181 Essex Street #E-305 02111","181","Essex","Street","E-305","02111","#E-305"
"181 Essex Street #E-401 02111","181","Essex","Street","E-401","02111","#E-401"
"21 Father Francis J. Gilday Street #509 02118","21","Father Francis J. Gilday","Street","509","02118","#509"
"35 Fay Street #E-210 02118","35","Fay","Street","E-210","02118","#E-210"
"35 Fay Street #E-212 02118","35","Fay","Street","E-212","02118","#E-212"
"35 Fay Street #E-216 02118","35","Fay","Street","E-216","02118","#E-216"
"35 Fay Street #E-306 02118","35","Fay","Street","E-306","02118","#E-306"
"35 Fay Street #E-310 02118","35","Fay","Street","E-310","02118","#E-310"
"35 Fay Street #E-312 02118","35","Fay","Street","E-312","02118","#E-312"
"35 Fay Street #E-406 02118","35","Fay","Street","E-406","02118","#E-406"
"40 Fay Street #H-203 02118","40","Fay","Street","H-203","02118","#H-203"
"40 Fay Street #H-204 02118","40","Fay","Street","H-204","02118","#H-204"
"40 Fay Street #H-205 02118","40","Fay","Street","H-205","02118","#H-205"
"40 Fay Street #H-304 02118","40","Fay","Street","H-304","02118","#H-304"
"40 Fay Street #H-305 02118","40","Fay","Street","H-305","02118","#H-305"
"40 Fay Street #H-404 02118","40","Fay","Street","H-404","02118","#H-404"
"45 First Avenue #108 02129","45","First","Avenue","108","02129","#108"
"45 First Avenue #112 02129","45","First","Avenue","112","02129","#112"
"45 First Avenue #201 02129","45","First","Avenue","201","02129","#201"
"45 First Avenue #206 02129","45","First","Avenue","206","02129","#206"
"45 First Avenue #210 02129","45","First","Avenue","210","02129","#210"
"45 First Avenue #306 02129","45","First","Avenue","306","02129","#306"
"45 First Avenue #310 02129","45","First","Avenue","310","02129","#310"
"45 First Avenue #313 02129","45","First","Avenue","313","02129","#313"
"45 First Avenue #401 02129","45","First","Avenue","401","02129","#401"
"45 First Avenue #406 02129","45","First","Avenue","406","02129","#406"
"45 First Avenue #410 02129","45","First","Avenue","410","02129","#410"
"110 First Avenue #101 02129","110","First","Avenue","101","02129","#101"
"110 First Avenue #102 02129","110","First","Avenue","102","02129","#102"
"110 First Avenue #201 02129","110","First","Avenue","201","02129","#201"
"110 First Avenue #202 02129","110","First","Avenue","202","02129","#202"
"110 First Avenue #301 02129","110","First","Avenue","301","02129","#301"
"110 First Avenue #302 02129","110","First","Avenue","302","02129","#302"
"110 First Avenue #303 02129","110","First","Avenue","303","02129","#303"
"110 First Avenue #304 02129","110","First","Avenue","304","02129","#304"
"110 First Avenue #401 02129","110","First","Avenue","401","02129","#401"
"110 First Avenue #402 02129","110","First","Avenue","402","02129","#402"
"110 First Avenue #403 02129","110","First","Avenue","403","02129","#403"
"110 First Avenue #404 02129","110","First","Avenue","404","02129","#404"
"110 First Avenue #501 02129","110","First","Avenue","501","02129","#501"
"110 First Avenue #502 02129","110","First","Avenue","502","02129","#502"
"110 First Avenue #503 02129","110","First","Avenue","503","02129","#503"
"110 First Avenue #504 02129","110","First","Avenue","504","02129","#504"
"110 First Avenue #601 02129","110","First","Avenue","601","02129","#601"
"110 First Avenue #602 02129","110","First","Avenue","602","02129","#602"
"24 Forbes Street #1 02130","24","Forbes","Street","1","02130","#1"
"26 Forbes Street #1 02130","26","Forbes","Street","1","02130","#1"
"28 Forbes Street #1 02130","28","Forbes","Street","1","02130","#1"
"100 Fulton Street #1R 02109","100","Fulton","Street","1R","02109","#1R"
"100 Fulton Street #1S 02109","100","Fulton","Street","1S","02109","#1S"
"100 Fulton Street #1T 02109","100","Fulton","Street","1T","02109","#1T"
"100 Fulton Street #2A 02109","100","Fulton","Street","2A","02109","#2A"
"100 Fulton Street #2V 02109","100","Fulton","Street","2V","02109","#2V"
"100 Fulton Street #3V 02109","100","Fulton","Street","3V","02109","#3V"
"431 Gallivan Boulevard #NA 02124","431","Gallivan","Boulevard",NA,"02124","#NA"
"435 Gallivan Boulevard #NA 02124","435","Gallivan","Boulevard",NA,"02124","#NA"
"1 Garden Street #1 02114","1","Garden","Street","1","02114","#1"
"9 Gardner Street #4 02134","9","Gardner","Street","4","02134","#4"
"9 Gardner Street #6 02134","9","Gardner","Street","6","02134","#6"
"120 George Street #1 02119","120","George","Street","1","02119","#1"
"120 George Street #2 02119","120","George","Street","2","02119","#2"
"120 George Street #3 02121","120","George","Street","3","02121","#3"
"120 George Street #4 02121","120","George","Street","4","02121","#4"
"2 Glenwood Avenue #1 02136","2","Glenwood","Avenue","1","02136","#1"
"6 Gordon Avenue #6 02136","6","Gordon","Avenue","6","02136","#6"
"8 Gordon Avenue #8 02136","8","Gordon","Avenue","8","02136","#8"
"23A Grantley Street #1 02136","23A","Grantley","Street","1","02136","#1"
"25B Grantley Street #6 02136","25B","Grantley","Street","6","02136","#6"
"111 Green Street #101 02130","111","Green","Street","101","02130","#101"
"111 Green Street #202 02130","111","Green","Street","202","02130","#202"
"131 Green Street #107 02130","131","Green","Street","107","02130","#107"
"156 Green Street #202 02130","156","Green","Street","202","02130","#202"
"156 Green Street #305 02130","156","Green","Street","305","02130","#305"
"101A Grew Avenue #IV-8 02131","101A","Grew","Avenue","IV-8","02131","#IV-8"
"103B Grew Avenue #IV-7 02131","103B","Grew","Avenue","IV-7","02131","#IV-7"
"83A Grew Avenue #VI-2 02131","83A","Grew","Avenue","VI-2","02131","#VI-2"
"83B Grew Avenue #VI-1 02131","83B","Grew","Avenue","VI-1","02131","#VI-1"
"85B Grew Avenue #VI-3 02131","85B","Grew","Avenue","VI-3","02131","#VI-3"
"89B Grew Avenue #VI-7 02131","89B","Grew","Avenue","VI-7","02131","#VI-7"
"97A Grew Avenue #V-2 02131","97A","Grew","Avenue","V-2","02131","#V-2"
"725 Harrison Avenue #E-101 02118","725","Harrison","Avenue","E-101","02118","#E-101"
"725 Harrison Avenue #E-201 02118","725","Harrison","Avenue","E-201","02118","#E-201"
"725 Harrison Avenue #E-203 02118","725","Harrison","Avenue","E-203","02118","#E-203"
"725 Harrison Avenue #E-305 02118","725","Harrison","Avenue","E-305","02118","#E-305"
"725 Harrison Avenue #E-401 02118","725","Harrison","Avenue","E-401","02118","#E-401"
"725 Harrison Avenue #E-405 02118","725","Harrison","Avenue","E-405","02118","#E-405"
"725 Harrison Avenue #E-406 02118","725","Harrison","Avenue","E-406","02118","#E-406"
"725 Harrison Avenue #E-501 02118","725","Harrison","Avenue","E-501","02118","#E-501"
"725 Harrison Avenue #E-506 02118","725","Harrison","Avenue","E-506","02118","#E-506"
"735 Harrison Avenue #W-102 02118","735","Harrison","Avenue","W-102","02118","#W-102"
"735 Harrison Avenue #W-201 02118","735","Harrison","Avenue","W-201","02118","#W-201"
"735 Harrison Avenue #W-202 02118","735","Harrison","Avenue","W-202","02118","#W-202"
"735 Harrison Avenue #W-203 02118","735","Harrison","Avenue","W-203","02118","#W-203"
"735 Harrison Avenue #W-301 02118","735","Harrison","Avenue","W-301","02118","#W-301"
"735 Harrison Avenue #W-302 02118","735","Harrison","Avenue","W-302","02118","#W-302"
"735 Harrison Avenue #W-303 02118","735","Harrison","Avenue","W-303","02118","#W-303"
"735 Harrison Avenue #W-304 02118","735","Harrison","Avenue","W-304","02118","#W-304"
"735 Harrison Avenue #W-305 02118","735","Harrison","Avenue","W-305","02118","#W-305"
"735 Harrison Avenue #W-401 02118","735","Harrison","Avenue","W-401","02118","#W-401"
"735 Harrison Avenue #W-402 02118","735","Harrison","Avenue","W-402","02118","#W-402"
"735 Harrison Avenue #W-403 02118","735","Harrison","Avenue","W-403","02118","#W-403"
"735 Harrison Avenue #W-404 02118","735","Harrison","Avenue","W-404","02118","#W-404"
"735 Harrison Avenue #W-405 02118","735","Harrison","Avenue","W-405","02118","#W-405"
"2 Hawthorne Place #14K 02114","2","Hawthorne","Place","14K","02114","#14K"
"251 Heath Street #101 02130","251","Heath","Street","101","02130","#101"
"251 Heath Street #104 02130","251","Heath","Street","104","02130","#104"
"251 Heath Street #109 02130","251","Heath","Street","109","02130","#109"
"251 Heath Street #212 02130","251","Heath","Street","212","02130","#212"
"251 Heath Street #302 02130","251","Heath","Street","302","02130","#302"
"251 Heath Street #307 02130","251","Heath","Street","307","02130","#307"
"251 Heath Street #412 02130","251","Heath","Street","412","02130","#412"
"251 Heath Street #415 02130","251","Heath","Street","415","02130","#415"
"4A Herman Street #4A 02119","4A","Herman","Street","4A","02119","#4A"
"4B Herman Street #4B 02119","4B","Herman","Street","4B","02119","#4B"
"67 Highland Street #1 02119","67","Highland","Street","1","02119","#1"
"75 Highland Street #2 02119","75","Highland","Street","2","02119","#2"
"226-232 Highland Street #230 02119","226-232","Highland","Street","230","02119","#230"
"18 Hollander Street #18 02135","18","Hollander","Street","18","02135","#18"
"20 Hollander Street #20 02121","20","Hollander","Street","20","02121","#20"
"22 Hollander Street #22 02135","22","Hollander","Street","22","02135","#22"
"24 Hollander Street #24 02135","24","Hollander","Street","24","02135","#24"
"26 Hollander Street #26 02135","26","Hollander","Street","26","02135","#26"
"28 Hollander Street #28 02114","28","Hollander","Street","28","02114","#28"
"30 Hollander Street #30 02114","30","Hollander","Street","30","02114","#30"
"32 Hollander Street #32 02121","32","Hollander","Street","32","02121","#32"
"34 Hollander Street #34 02114","34","Hollander","Street","34","02114","#34"
"36 Hollander Street #36 02127","36","Hollander","Street","36","02127","#36"
"38 Hollander Street #38 02121","38","Hollander","Street","38","02121","#38"
"40 Hollander Street #40 02121","40","Hollander","Street","40","02121","#40"
"44 Hollander Street #44 02121","44","Hollander","Street","44","02121","#44"
"46 Hollander Street #46 02121","46","Hollander","Street","46","02121","#46"
"113 Holton Street #1 02135","113","Holton","Street","1","02135","#1"
"115 Holton Street #3 02127","115","Holton","Street","3","02127","#3"
"117 Holton Street #5 02127","117","Holton","Street","5","02127","#5"
"119 Holton Street #7 02127","119","Holton","Street","7","02127","#7"
"121 Holton Street #9 02127","121","Holton","Street","9","02127","#9"
"123 Holton Street #11 02130","123","Holton","Street","11","02130","#11"
"113A Holton Street #2 02135","113A","Holton","Street","2","02135","#2"
"115A Holton Street #4 02127","115A","Holton","Street","4","02127","#4"
"117A Holton Street #6 02127","117A","Holton","Street","6","02127","#6"
"119A Holton Street #8 02127","119A","Holton","Street","8","02127","#8"
"121A Holton Street #10 02130","121A","Holton","Street","10","02130","#10"
"123A Holton Street #12 02114","123A","Holton","Street","12","02114","#12"
"153 Hyde Park Avenue #B 02130","153","Hyde Park","Avenue","B","02130","#B"
"157 Hyde Park Avenue #B 02130","157","Hyde Park","Avenue","B","02130","#B"
"169 Hyde Park Avenue #B 02130","169","Hyde Park","Avenue","B","02130","#B"
"3 Johnson Terrace #1 02124","3","Johnson","Terrace","1","02124","#1"
"3 Johnson Terrace #2 02124","3","Johnson","Terrace","2","02124","#2"
"3 Johnson Terrace #3 02124","3","Johnson","Terrace","3","02124","#3"
"3 Johnson Terrace #4 02124","3","Johnson","Terrace","4","02124","#4"
"3 Johnson Terrace #5 02124","3","Johnson","Terrace","5","02124","#5"
"3 Johnson Terrace #6 02124","3","Johnson","Terrace","6","02124","#6"
"3 Johnson Terrace #7 02124","3","Johnson","Terrace","7","02124","#7"
"3 Johnson Terrace #8 02124","3","Johnson","Terrace","8","02124","#8"
"88 Kingston Street #1A 02111","88","Kingston","Street","1A","02111","#1A"
"88 Kingston Street #1C 02111","88","Kingston","Street","1C","02111","#1C"
"88 Kingston Street #3B 02111","88","Kingston","Street","3B","02111","#3B"
"88 Kingston Street #3C 02111","88","Kingston","Street","3C","02111","#3C"
"3 Lambert Street #1 02119","3","Lambert","Street","1","02119","#1"
"5 Lambert Street #1 02119","5","Lambert","Street","1","02119","#1"
"2 Lee Hill Road #6 02131","2","Lee Hill","Road","6","02131","#6"
"22 Liberty Drive #3G 02210","22","Liberty","Drive","3G","02210","#3G"
"22 Liberty Drive #4J 02210","22","Liberty","Drive","4J","02210","#4J"
"50 Liberty Drive #3E 02210","50","Liberty","Drive","3E","02210","#3E"
"50 Liberty Drive #3I 02210","50","Liberty","Drive","3I","02210","#3I"
"50 Liberty Drive #4H 02210","50","Liberty","Drive","4H","02210","#4H"
"50 Liberty Drive #5H 02210","50","Liberty","Drive","5H","02210","#5H"
"70 Lincoln Street #L-216 02111","70","Lincoln","Street","L-216","02111","#L-216"
"70 Lincoln Street #L-217 02111","70","Lincoln","Street","L-217","02111","#L-217"
"70 Lincoln Street #L-314 02111","70","Lincoln","Street","L-314","02111","#L-314"
"70 Lincoln Street #L-319 02111","70","Lincoln","Street","L-319","02111","#L-319"
"70 Lincoln Street #L-410 02111","70","Lincoln","Street","L-410","02111","#L-410"
"70 Lincoln Street #L-415 02111","70","Lincoln","Street","L-415","02111","#L-415"
"70 Lincoln Street #L-517 02111","70","Lincoln","Street","L-517","02111","#L-517"
"101 Litchfield Street #13 02114","101","Litchfield","Street","13","02114","#13"
"103 Litchfield Street #15 02127","103","Litchfield","Street","15","02127","#15"
"105 Litchfield Street #17 02129","105","Litchfield","Street","17","02129","#17"
"107 Litchfield Street #19 02135","107","Litchfield","Street","19","02135","#19"
"101A Litchfield Street #14 02114","101A","Litchfield","Street","14","02114","#14"
"103A Litchfield Street #16 02129","103A","Litchfield","Street","16","02129","#16"
"105A Litchfield Street #18 02135","105A","Litchfield","Street","18","02135","#18"
"107A Litchfield Street #20 02135","107A","Litchfield","Street","20","02135","#20"
"1-3 Louis Terrace #1B 02124","1-3","Louis","Terrace","1B","02124","#1B"
"257 Main Street #2 02129","257","Main","Street","2","02129","#2"
"257 Main Street #3 02129","257","Main","Street","3","02129","#3"
"261 Main Street #2 02129","261","Main","Street","2","02129","#2"
"261 Main Street #3 02129","261","Main","Street","3","02129","#3"
"438 Main Street #NA 02129","438","Main","Street",NA,"02129","#NA"
"440 Main Street #NA 02129","440","Main","Street",NA,"02129","#NA"
"446 Main Street #NA 02129","446","Main","Street",NA,"02129","#NA"
"449 Main Street #NA 02129","449","Main","Street",NA,"02129","#NA"
"451 Main Street #NA 02129","451","Main","Street",NA,"02129","#NA"
"456 Main Street #NA 02129","456","Main","Street",NA,"02129","#NA"
"457 Main Street #NA 02129","457","Main","Street",NA,"02129","#NA"
"459 Main Street #NA 02129","459","Main","Street",NA,"02129","#NA"
"466 Main Street #NA 02129","466","Main","Street",NA,"02129","#NA"
"470 Main Street #NA 02129","470","Main","Street",NA,"02129","#NA"
"185 Massachusetts Avenue #101 02115","185","Massachusetts","Avenue","101","02115","#101"
"185 Massachusetts Avenue #102 02115","185","Massachusetts","Avenue","102","02115","#102"
"424 Massachusetts Avenue #101 02134","424","Massachusetts","Avenue","101","02134","#101"
"424 Massachusetts Avenue #301 02118","424","Massachusetts","Avenue","301","02118","#301"
"691 Massachusetts Avenue #104 02116","691","Massachusetts","Avenue","104","02116","#104"
"691 Massachusetts Avenue #105 02116","691","Massachusetts","Avenue","105","02116","#105"
"320 Maverick Street #205 02128","320","Maverick","Street","205","02128","#205"
"320 Maverick Street #208 02128","320","Maverick","Street","208","02128","#208"
"320 Maverick Street #302 02128","320","Maverick","Street","302","02128","#302"
"320 Maverick Street #306 02128","320","Maverick","Street","306","02128","#306"
"300 Medford Street #1 02129","300","Medford","Street","1","02129","#1"
"300 Medford Street #2 02129","300","Medford","Street","2","02129","#2"
"300 Medford Street #3 02129","300","Medford","Street","3","02129","#3"
"250 Meridian Street #210 02128","250","Meridian","Street","210","02128","#210"
"250 Meridian Street #212 02128","250","Meridian","Street","212","02128","#212"
"250 Meridian Street #301 02128","250","Meridian","Street","301","02128","#301"
"250 Meridian Street #309 02128","250","Meridian","Street","309","02128","#309"
"250 Meridian Street #312 02128","250","Meridian","Street","312","02128","#312"
"250 Meridian Street #409 02128","250","Meridian","Street","409","02128","#409"
"250 Meridian Street #414 02128","250","Meridian","Street","414","02128","#414"
"250 Meridian Street #512 02128","250","Meridian","Street","512","02128","#512"
"16 Miner Street #113 02114","16","Miner","Street","113","02114","#113"
"16 Miner Street #202 02127","16","Miner","Street","202","02127","#202"
"16 Miner Street #209 02130","16","Miner","Street","209","02130","#209"
"16 Miner Street #305 02127","16","Miner","Street","305","02127","#305"
"16 Miner Street #407 02215","16","Miner","Street","407","02215","#407"
"120 Mountfort Street #101 02215","120","Mountfort","Street","101","02215","#101"
"120 Mountfort Street #106 02215","120","Mountfort","Street","106","02215","#106"
"120 Mountfort Street #304 02215","120","Mountfort","Street","304","02215","#304"
"120 Mountfort Street #405 02215","120","Mountfort","Street","405","02215","#405"
"1 Nassau Street #1002 02111","1","Nassau","Street","1002","02111","#1002"
"1 Nassau Street #1003 02111","1","Nassau","Street","1003","02111","#1003"
"1 Nassau Street #1006 02111","1","Nassau","Street","1006","02111","#1006"
"1 Nassau Street #1007 02111","1","Nassau","Street","1007","02111","#1007"
"1 Nassau Street #1008 02111","1","Nassau","Street","1008","02111","#1008"
"1 Nassau Street #1102 02111","1","Nassau","Street","1102","02111","#1102"
"1 Nassau Street #1103 02111","1","Nassau","Street","1103","02111","#1103"
"1 Nassau Street #1106 02111","1","Nassau","Street","1106","02111","#1106"
"1 Nassau Street #1107 02111","1","Nassau","Street","1107","02111","#1107"
"1 Nassau Street #1108 02111","1","Nassau","Street","1108","02111","#1108"
"1 Nassau Street #1202 02111","1","Nassau","Street","1202","02111","#1202"
"1 Nassau Street #1204 02111","1","Nassau","Street","1204","02111","#1204"
"1 Nassau Street #1205 02111","1","Nassau","Street","1205","02111","#1205"
"1 Nassau Street #1207 02111","1","Nassau","Street","1207","02111","#1207"
"1 Nassau Street #1208 02111","1","Nassau","Street","1208","02111","#1208"
"1 Nassau Street #1303 02111","1","Nassau","Street","1303","02111","#1303"
"1 Nassau Street #1306 02111","1","Nassau","Street","1306","02111","#1306"
"1 Nassau Street #1307 02111","1","Nassau","Street","1307","02111","#1307"
"1 Nassau Street #1308 02111","1","Nassau","Street","1308","02111","#1308"
"1 Nassau Street #1403 02111","1","Nassau","Street","1403","02111","#1403"
"1 Nassau Street #1404 02111","1","Nassau","Street","1404","02111","#1404"
"1 Nassau Street #1406 02111","1","Nassau","Street","1406","02111","#1406"
"1 Nassau Street #1503 02111","1","Nassau","Street","1503","02111","#1503"
"1 Nassau Street #1505 02111","1","Nassau","Street","1505","02111","#1505"
"1 Nassau Street #1506 02111","1","Nassau","Street","1506","02111","#1506"
"1 Nassau Street #1507 02111","1","Nassau","Street","1507","02111","#1507"
"1 Nassau Street #1602 02111","1","Nassau","Street","1602","02111","#1602"
"1 Nassau Street #1604 02111","1","Nassau","Street","1604","02111","#1604"
"1 Nassau Street #1606 02111","1","Nassau","Street","1606","02111","#1606"
"1 Nassau Street #1608 02111","1","Nassau","Street","1608","02111","#1608"
"1 Nassau Street #1708 02111","1","Nassau","Street","1708","02111","#1708"
"1 Nassau Street #1908 02111","1","Nassau","Street","1908","02111","#1908"
"360 Newbury Street #402 02115","360","Newbury","Street","402","02115","#402"
"360 Newbury Street #406 02115","360","Newbury","Street","406","02115","#406"
"360 Newbury Street #506 02115","360","Newbury","Street","506","02115","#506"
"360 Newbury Street #606 02115","360","Newbury","Street","606","02115","#606"
"360 Newbury Street #706 02115","360","Newbury","Street","706","02115","#706"
"65 Nightingale Street #1A 02124","65","Nightingale","Street","1A","02124","#1A"
"65 Nightingale Street #2A 02124","65","Nightingale","Street","2A","02124","#2A"
"65 Nightingale Street #3A 02124","65","Nightingale","Street","3A","02124","#3A"
"67 Nightingale Street #3B 02124","67","Nightingale","Street","3B","02124","#3B"
"67 Nightingale Street #4B 02124","67","Nightingale","Street","4B","02124","#4B"
"69 Nightingale Street #1 02124","69","Nightingale","Street","1","02124","#1"
"69 Nightingale Street #2 02124","69","Nightingale","Street","2","02124","#2"
"69 Nightingale Street #3 02124","69","Nightingale","Street","3","02124","#3"
"69 Nightingale Street #4 02124","69","Nightingale","Street","4","02124","#4"
"255 Northampton Street #101 02118","255","Northampton","Street","101","02118","#101"
"255 Northampton Street #204 02118","255","Northampton","Street","204","02118","#204"
"257 Northampton Street #102 02127","257","Northampton","Street","102","02127","#102"
"257 Northampton Street #103 02114","257","Northampton","Street","103","02114","#103"
"257 Northampton Street #104 02130","257","Northampton","Street","104","02130","#104"
"257 Northampton Street #105 02132","257","Northampton","Street","105","02132","#105"
"257 Northampton Street #206 02118","257","Northampton","Street","206","02118","#206"
"257 Northampton Street #207 02118","257","Northampton","Street","207","02118","#207"
"257 Northampton Street #208 02118","257","Northampton","Street","208","02118","#208"
"70-72 Northampton Street #102 02118","70-72","Northampton","Street","102","02118","#102"
"70-72 Northampton Street #103 02118","70-72","Northampton","Street","103","02118","#103"
"70-72 Northampton Street #104 02118","70-72","Northampton","Street","104","02118","#104"
"70-72 Northampton Street #203 02118","70-72","Northampton","Street","203","02118","#203"
"70-72 Northampton Street #204 02118","70-72","Northampton","Street","204","02118","#204"
"70-72 Northampton Street #303 02118","70-72","Northampton","Street","303","02118","#303"
"60 Norwell Street #1 02121","60","Norwell","Street","1","02121","#1"
"70 Norwell Street #1 02121","70","Norwell","Street","1","02121","#1"
"70 Norwell Street #2 02121","70","Norwell","Street","2","02121","#2"
"70 Norwell Street #3 02121","70","Norwell","Street","3","02121","#3"
"70 Norwell Street #4 02121","70","Norwell","Street","4","02121","#4"
"152 Old Colony Avenue #3 02127","152","Old Colony","Avenue","3","02127","#3"
"152 Old Colony Avenue #5 02127","152","Old Colony","Avenue","5","02127","#5"
"152 Old Colony Avenue #16 02127","152","Old Colony","Avenue","16","02127","#16"
"232 Old Colony Avenue #202 02127","232","Old Colony","Avenue","202","02127","#202"
"232 Old Colony Avenue #303 02127","232","Old Colony","Avenue","303","02127","#303"
"232 Old Colony Avenue #503 02127","232","Old Colony","Avenue","503","02127","#503"
"275 Old Colony Avenue #4 02127","275","Old Colony","Avenue","4","02127","#4"
"275 Old Colony Avenue #9 02127","275","Old Colony","Avenue","9","02127","#9"
"20 Penniman Square #106 02134","20","Penniman","Square","106","02134","#106"
"20 Penniman Square #107 02134","20","Penniman","Square","107","02134","#107"
"20 Penniman Square #204 02134","20","Penniman","Square","204","02134","#204"
"20 Penniman Square #205 02134","20","Penniman","Square","205","02134","#205"
"20 Penniman Square #306 02134","20","Penniman","Square","306","02134","#306"
"20 Penniman Square #405 02134","20","Penniman","Square","405","02134","#405"
"30 Polk Street #102 02129","30","Polk","Street","102","02129","#102"
"30 Polk Street #105 02129","30","Polk","Street","105","02129","#105"
"30 Polk Street #201 02129","30","Polk","Street","201","02129","#201"
"30 Polk Street #204 02129","30","Polk","Street","204","02129","#204"
"76 Pond Street #P 02130","76","Pond","Street","P","02130","#P"
"26 Pontiac Street #A 02120","26","Pontiac","Street","A","02120","#A"
"26 Pontiac Street #B 02120","26","Pontiac","Street","B","02120","#B"
"26 Pontiac Street #C 02120","26","Pontiac","Street","C","02120","#C"
"156 Porter Street #102 02128","156","Porter","Street","102","02128","#102"
"156 Porter Street #103 02128","156","Porter","Street","103","02128","#103"
"156 Porter Street #106 02128","156","Porter","Street","106","02128","#106"
"156 Porter Street #110 02128","156","Porter","Street","110","02128","#110"
"156 Porter Street #114 01212","156","Porter","Street","114","01212","#114"
"156 Porter Street #122 02128","156","Porter","Street","122","02128","#122"
"156 Porter Street #123 02128","156","Porter","Street","123","02128","#123"
"156 Porter Street #124 02128","156","Porter","Street","124","02128","#124"
"156 Porter Street #128 02128","156","Porter","Street","128","02128","#128"
"156 Porter Street #133 02128","156","Porter","Street","133","02128","#133"
"156 Porter Street #136 02128","156","Porter","Street","136","02128","#136"
"156 Porter Street #144 02128","156","Porter","Street","144","02128","#144"
"156 Porter Street #152 02128","156","Porter","Street","152","02128","#152"
"156 Porter Street #156 02128","156","Porter","Street","156","02128","#156"
"156 Porter Street #204 02128","156","Porter","Street","204","02128","#204"
"156 Porter Street #205 02128","156","Porter","Street","205","02128","#205"
"156 Porter Street #208 02128","156","Porter","Street","208","02128","#208"
"156 Porter Street #216 02128","156","Porter","Street","216","02128","#216"
"156 Porter Street #220 02128","156","Porter","Street","220","02128","#220"
"156 Porter Street #226 02128","156","Porter","Street","226","02128","#226"
"156 Porter Street #227 02128","156","Porter","Street","227","02128","#227"
"156 Porter Street #233 02128","156","Porter","Street","233","02128","#233"
"156 Porter Street #234 02128","156","Porter","Street","234","02128","#234"
"156 Porter Street #240 02128","156","Porter","Street","240","02128","#240"
"156 Porter Street #241 02128","156","Porter","Street","241","02128","#241"
"156 Porter Street #254 02128","156","Porter","Street","254","02128","#254"
"156 Porter Street #256 02128","156","Porter","Street","256","02128","#256"
"156 Porter Street #312 02128","156","Porter","Street","312","02128","#312"
"156 Porter Street #322 02128","156","Porter","Street","322","02128","#322"
"156 Porter Street #327 02128","156","Porter","Street","327","02128","#327"
"156 Porter Street #349 02128","156","Porter","Street","349","02128","#349"
"156 Porter Street #354 02128","156","Porter","Street","354","02128","#354"
"121 Portland Street #201 02114","121","Portland","Street","201","02114","#201"
"121 Portland Street #301 02114","121","Portland","Street","301","02114","#301"
"121 Portland Street #308 02114","121","Portland","Street","308","02114","#308"
"121 Portland Street #402 02114","121","Portland","Street","402","02114","#402"
"121 Portland Street #410 02114","121","Portland","Street","410","02114","#410"
"121 Portland Street #510 02114","121","Portland","Street","510","02114","#510"
"121 Portland Street #610 02114","121","Portland","Street","610","02114","#610"
"44 Prince Street #102 02113","44","Prince","Street","102","02113","#102"
"44 Prince Street #108 02113","44","Prince","Street","108","02113","#108"
"44 Prince Street #208 02113","44","Prince","Street","208","02113","#208"
"44 Prince Street #209 02109","44","Prince","Street","209","02109","#209"
"44 Prince Street #212 02113","44","Prince","Street","212","02113","#212"
"44 Prince Street #312 02113","44","Prince","Street","312","02113","#312"
"29 Prospect Street #NA 02129","29","Prospect","Street",NA,"02129","#NA"
"64A Regent Street #64-2 02119","64A","Regent","Street","64-2","02119","#64-2"
"64B Regent Street #64-1 02119","64B","Regent","Street","64-1","02119","#64-1"
"66A Regent Street #66-2 02119","66A","Regent","Street","66-2","02119","#66-2"
"66B Regent Street #66-1 02119","66B","Regent","Street","66-1","02119","#66-1"
"18 Robert Street #2 02131","18","Robert","Street","2","02131","#2"
"20 Rockland Street #1 02119","20","Rockland","Street","1","02119","#1"
"20 Rockland Street #2 02119","20","Rockland","Street","2","02119","#2"
"20 Rockland Street #3 02119","20","Rockland","Street","3","02119","#3"
"8 Rowe Court #8 02131","8","Rowe","Court","8","02131","#8"
"10 Rowe Court #10 02131","10","Rowe","Court","10","02131","#10"
"463 Rutherford Avenue #201 02129","463","Rutherford","Avenue","201","02129","#201"
"463 Rutherford Avenue #203 02129","463","Rutherford","Avenue","203","02129","#203"
"1 Saint George Street #1A 02118","1","Saint George","Street","1A","02118","#1A"
"1 Saint George Street #1B 02118","1","Saint George","Street","1B","02118","#1B"
"1 Saint George Street #2A 02118","1","Saint George","Street","2A","02118","#2A"
"1 Saint George Street #2B 02118","1","Saint George","Street","2B","02118","#2B"
"1 Saint George Street #3A 02118","1","Saint George","Street","3A","02118","#3A"
"1 Saint George Street #4C 02118","1","Saint George","Street","4C","02118","#4C"
"1 Saint George Street #5A 02118","1","Saint George","Street","5A","02118","#5A"
"10 Saint George Street #101 02118","10","Saint George","Street","101","02118","#101"
"10 Saint George Street #105 02118","10","Saint George","Street","105","02118","#105"
"10 Saint George Street #201 02118","10","Saint George","Street","201","02118","#201"
"10 Saint George Street #305 02118","10","Saint George","Street","305","02118","#305"
"11 Saint George Street #11A 02118","11","Saint George","Street","11A","02118","#11A"
"11 Saint George Street #11B 02118","11","Saint George","Street","11B","02118","#11B"
"11 Saint George Street #11C 02118","11","Saint George","Street","11C","02118","#11C"
"11 Saint George Street #12A 02118","11","Saint George","Street","12A","02118","#12A"
"11 Saint George Street #12C 02118","11","Saint George","Street","12C","02118","#12C"
"11 Saint George Street #13B 02118","11","Saint George","Street","13B","02118","#13B"
"11 Saint George Street #14B 02118","11","Saint George","Street","14B","02118","#14B"
"66 Saint George Street #102 02119","66","Saint George","Street","102","02119","#102"
"66 Saint George Street #103 02119","66","Saint George","Street","103","02119","#103"
"66 Saint George Street #105 02119","66","Saint George","Street","105","02119","#105"
"66 Saint George Street #106 02119","66","Saint George","Street","106","02119","#106"
"66 Saint George Street #205 02119","66","Saint George","Street","205","02119","#205"
"66 Saint George Street #207 02119","66","Saint George","Street","207","02119","#207"
"910 Saratoga Street #3 02128","910","Saratoga","Street","3","02128","#3"
"910 Saratoga Street #12 02127","910","Saratoga","Street","12","02127","#12"
"910 Saratoga Street #17 02128","910","Saratoga","Street","17","02128","#17"
"219 Shawmut Avenue #219-1A 02118","219","Shawmut","Avenue","219-1A","02118","#219-1A"
"219 Shawmut Avenue #219-1B 02118","219","Shawmut","Avenue","219-1B","02118","#219-1B"
"225 Shawmut Avenue #225-1B 02118","225","Shawmut","Avenue","225-1B","02118","#225-1B"
"478 Shawmut Avenue #1 02118","478","Shawmut","Avenue","1","02118","#1"
"478 Shawmut Avenue #3 02118","478","Shawmut","Avenue","3","02118","#3"
"478 Shawmut Avenue #4 02118","478","Shawmut","Avenue","4","02118","#4"
"758 Shawmut Avenue #1 02119","758","Shawmut","Avenue","1","02119","#1"
"758 Shawmut Avenue #2 02119","758","Shawmut","Avenue","2","02119","#2"
"758 Shawmut Avenue #3 02119","758","Shawmut","Avenue","3","02119","#3"
"760 Shawmut Avenue #4 02119","760","Shawmut","Avenue","4","02119","#4"
"762 Shawmut Avenue #5 02119","762","Shawmut","Avenue","5","02119","#5"
"764 Shawmut Avenue #6 02119","764","Shawmut","Avenue","6","02119","#6"
"766 Shawmut Avenue #7 02119","766","Shawmut","Avenue","7","02119","#7"
"768 Shawmut Avenue #8 02119","768","Shawmut","Avenue","8","02119","#8"
"770 Shawmut Avenue #9 02119","770","Shawmut","Avenue","9","02119","#9"
"772 Shawmut Avenue #10 02119","772","Shawmut","Avenue","10","02119","#10"
"774 Shawmut Avenue #11 02119","774","Shawmut","Avenue","11","02119","#11"
"776 Shawmut Avenue #12 02127","776","Shawmut","Avenue","12","02127","#12"
"778 Shawmut Avenue #13 02127","778","Shawmut","Avenue","13","02127","#13"
"780 Shawmut Avenue #14 02114","780","Shawmut","Avenue","14","02114","#14"
"782 Shawmut Avenue #15 02135","782","Shawmut","Avenue","15","02135","#15"
"18 Sigourney Street #G 02130","18","Sigourney","Street","G","02130","#G"
"20 Sigourney Street #D 02130","20","Sigourney","Street","D","02130","#D"
"210 South Street #2-1 02111","210","South","Street","2-1","02111","#2-1"
"210 South Street #3-3 02111","210","South","Street","3-3","02111","#3-3"
"210 South Street #7-3 02111","210","South","Street","7-3","02111","#7-3"
"210 South Street #8-1 02111","210","South","Street","8-1","02111","#8-1"
"210 South Street #9-5 02111","210","South","Street","9-5","02111","#9-5"
"26 Stillman Street #1-1 02113","26","Stillman","Street","1-1","02113","#1-1"
"26 Stillman Street #2-4 02113","26","Stillman","Street","2-4","02113","#2-4"
"26 Stillman Street #2-5 02113","26","Stillman","Street","2-5","02113","#2-5"
"400 Stuart Street #15L 02116","400","Stuart","Street","15L","02116","#15L"
"330 Summit Avenue #102 02135","330","Summit","Avenue","102","02135","#102"
"330 Summit Avenue #105 02135","330","Summit","Avenue","105","02135","#105"
"113 Sumner Street #11 02128","113","Sumner","Street","11","02128","#11"
"113 Sumner Street #12 02128","113","Sumner","Street","12","02128","#12"
"113 Sumner Street #13 02128","113","Sumner","Street","13","02128","#13"
"113 Sumner Street #21 02128","113","Sumner","Street","21","02128","#21"
"113 Sumner Street #22 02128","113","Sumner","Street","22","02128","#22"
"113 Sumner Street #23 02128","113","Sumner","Street","23","02128","#23"
"113 Sumner Street #24 02128","113","Sumner","Street","24","02128","#24"
"113 Sumner Street #25 02128","113","Sumner","Street","25","02128","#25"
"113 Sumner Street #31 02128","113","Sumner","Street","31","02128","#31"
"113 Sumner Street #32 02128","113","Sumner","Street","32","02128","#32"
"113 Sumner Street #33 02128","113","Sumner","Street","33","02128","#33"
"113 Sumner Street #34 02128","113","Sumner","Street","34","02128","#34"
"113 Sumner Street #35 02128","113","Sumner","Street","35","02128","#35"
"113 Sumner Street #41 02128","113","Sumner","Street","41","02128","#41"
"113 Sumner Street #42 02128","113","Sumner","Street","42","02128","#42"
"113 Sumner Street #43 02128","113","Sumner","Street","43","02128","#43"
"113 Sumner Street #45 02128","113","Sumner","Street","45","02128","#45"
"113 Sumner Street #51 02128","113","Sumner","Street","51","02128","#51"
"113 Sumner Street #52 02128","113","Sumner","Street","52","02128","#52"
"113 Sumner Street #53 02128","113","Sumner","Street","53","02128","#53"
"113 Sumner Street #54 02128","113","Sumner","Street","54","02128","#54"
"113 Sumner Street #55 02128","113","Sumner","Street","55","02128","#55"
"113 Sumner Street #61 02128","113","Sumner","Street","61","02128","#61"
"113 Sumner Street #62 02128","113","Sumner","Street","62","02128","#62"
"113 Sumner Street #63 02128","113","Sumner","Street","63","02128","#63"
"113 Sumner Street #64 02128","113","Sumner","Street","64","02128","#64"
"113 Sumner Street #65 02128","113","Sumner","Street","65","02128","#65"
"113 Sumner Street #71 02128","113","Sumner","Street","71","02128","#71"
"113 Sumner Street #72 02128","113","Sumner","Street","72","02128","#72"
"180 Telford Street #207 02135","180","Telford","Street","207","02135","#207"
"180 Telford Street #208 02135","180","Telford","Street","208","02135","#208"
"180 Telford Street #301 02135","180","Telford","Street","301","02135","#301"
"180 Telford Street #314 02135","180","Telford","Street","314","02135","#314"
"180 Telford Street #401 02135","180","Telford","Street","401","02135","#401"
"180 Telford Street #414 02135","180","Telford","Street","414","02135","#414"
"103 Thirteenth Street #101 02129","103","Thirteenth","Street","101","02129","#101"
"103 Thirteenth Street #201 02129","103","Thirteenth","Street","201","02129","#201"
"103 Thirteenth Street #301 02129","103","Thirteenth","Street","301","02129","#301"
"103 Thirteenth Street #302 02129","103","Thirteenth","Street","302","02129","#302"
"103 Thirteenth Street #401 02129","103","Thirteenth","Street","401","02129","#401"
"103 Thirteenth Street #402 02129","103","Thirteenth","Street","402","02129","#402"
"106 Thirteenth Street #101 02129","106","Thirteenth","Street","101","02129","#101"
"106 Thirteenth Street #102 02129","106","Thirteenth","Street","102","02129","#102"
"106 Thirteenth Street #103 02129","106","Thirteenth","Street","103","02129","#103"
"106 Thirteenth Street #104 02129","106","Thirteenth","Street","104","02129","#104"
"106 Thirteenth Street #217 02129","106","Thirteenth","Street","217","02129","#217"
"106 Thirteenth Street #220 02129","106","Thirteenth","Street","220","02129","#220"
"106 Thirteenth Street #222 02129","106","Thirteenth","Street","222","02129","#222"
"106 Thirteenth Street #233 02129","106","Thirteenth","Street","233","02129","#233"
"106 Thirteenth Street #235 02129","106","Thirteenth","Street","235","02129","#235"
"101A Thirteenth Street #NA 02129","101A","Thirteenth","Street",NA,"02129","#NA"
"101B Thirteenth Street #NA 02129","101B","Thirteenth","Street",NA,"02129","#NA"
"77A Thirteenth Street #NA 02129","77A","Thirteenth","Street",NA,"02129","#NA"
"77B Thirteenth Street #NA 02129","77B","Thirteenth","Street",NA,"02129","#NA"
"79A Thirteenth Street #NA 02129","79A","Thirteenth","Street",NA,"02129","#NA"
"79B Thirteenth Street #NA 02129","79B","Thirteenth","Street",NA,"02129","#NA"
"81A Thirteenth Street #NA 02129","81A","Thirteenth","Street",NA,"02129","#NA"
"81B Thirteenth Street #NA 02129","81B","Thirteenth","Street",NA,"02129","#NA"
"83A Thirteenth Street #NA 02129","83A","Thirteenth","Street",NA,"02129","#NA"
"83B Thirteenth Street #NA 02129","83B","Thirteenth","Street",NA,"02129","#NA"
"85A Thirteenth Street #NA 02129","85A","Thirteenth","Street",NA,"02129","#NA"
"85B Thirteenth Street #NA 02129","85B","Thirteenth","Street",NA,"02129","#NA"
"87A Thirteenth Street #NA 02129","87A","Thirteenth","Street",NA,"02129","#NA"
"87B Thirteenth Street #NA 02129","87B","Thirteenth","Street",NA,"02129","#NA"
"89A Thirteenth Street #NA 02129","89A","Thirteenth","Street",NA,"02129","#NA"
"89B Thirteenth Street #NA 02129","89B","Thirteenth","Street",NA,"02129","#NA"
"91A Thirteenth Street #NA 02129","91A","Thirteenth","Street",NA,"02129","#NA"
"91B Thirteenth Street #NA 02129","91B","Thirteenth","Street",NA,"02129","#NA"
"93A Thirteenth Street #NA 02129","93A","Thirteenth","Street",NA,"02129","#NA"
"93B Thirteenth Street #NA 02129","93B","Thirteenth","Street",NA,"02129","#NA"
"95A Thirteenth Street #NA 02129","95A","Thirteenth","Street",NA,"02129","#NA"
"95B Thirteenth Street #NA 02129","95B","Thirteenth","Street",NA,"02129","#NA"
"97A Thirteenth Street #NA 02129","97A","Thirteenth","Street",NA,"02129","#NA"
"97B Thirteenth Street #NA 02129","97B","Thirteenth","Street",NA,"02129","#NA"
"99A Thirteenth Street #NA 02129","99A","Thirteenth","Street",NA,"02129","#NA"
"99B Thirteenth Street #NA 02129","99B","Thirteenth","Street",NA,"02129","#NA"
"40 Traveler Street #204 02118","40","Traveler","Street","204","02118","#204"
"40 Traveler Street #304 02135","40","Traveler","Street","304","02135","#304"
"30-36 Traveler Street #201 02118","30-36","Traveler","Street","201","02118","#201"
"30-36 Traveler Street #205 02118","30-36","Traveler","Street","205","02118","#205"
"30-36 Traveler Street #208 02118","30-36","Traveler","Street","208","02118","#208"
"30-36 Traveler Street #213 02118","30-36","Traveler","Street","213","02118","#213"
"30-36 Traveler Street #301 02115","30-36","Traveler","Street","301","02115","#301"
"30-36 Traveler Street #308 02118","30-36","Traveler","Street","308","02118","#308"
"30-36 Traveler Street #401 02118","30-36","Traveler","Street","401","02118","#401"
"30-36 Traveler Street #507 02135","30-36","Traveler","Street","507","02135","#507"
"57 Tremont Street #NA 02129","57","Tremont","Street",NA,"02129","#NA"
"69 Tremont Street #NA 02129","69","Tremont","Street",NA,"02129","#NA"
"99 Tremont Street #103 02135","99","Tremont","Street","103","02135","#103"
"99 Tremont Street #110 02135","99","Tremont","Street","110","02135","#110"
"99 Tremont Street #201 02135","99","Tremont","Street","201","02135","#201"
"99 Tremont Street #216 02135","99","Tremont","Street","216","02135","#216"
"99 Tremont Street #306 02135","99","Tremont","Street","306","02135","#306"
"99 Tremont Street #315 02135","99","Tremont","Street","315","02135","#315"
"99 Tremont Street #411 02135","99","Tremont","Street","411","02135","#411"
"99 Tremont Street #419 02135","99","Tremont","Street","419","02135","#419"
"980 Tremont Street #4 02120","980","Tremont","Street","4","02120","#4"
"30 Union Park Street #206 02118","30","Union Park","Street","206","02118","#206"
"30 Union Park Street #406 02118","30","Union Park","Street","406","02118","#406"
"990 VFW Parkway #103 02132","990","VFW","Parkway","103","02132","#103"
"990 VFW Parkway #204 02132","990","VFW","Parkway","204","02132","#204"
"990 VFW Parkway #302 02132","990","VFW","Parkway","302","02132","#302"
"1100 VFW Parkway #107 02132","1100","VFW","Parkway","107","02132","#107"
"1100 VFW Parkway #207 02132","1100","VFW","Parkway","207","02132","#207"
"27 Wareham Street #102 02118","27","Wareham","Street","102","02118","#102"
"27 Wareham Street #206 02118","27","Wareham","Street","206","02118","#206"
"27 Wareham Street #302 02118","27","Wareham","Street","302","02118","#302"
"90 Wareham Street #A-205 02118","90","Wareham","Street","A-205","02118","#A-205"
"90 Wareham Street #A-207 02118","90","Wareham","Street","A-207","02118","#A-207"
"90 Wareham Street #A-211 02118","90","Wareham","Street","A-211","02118","#A-211"
"90 Wareham Street #A-215 02118","90","Wareham","Street","A-215","02118","#A-215"
"90 Wareham Street #A-304 02118","90","Wareham","Street","A-304","02118","#A-304"
"90 Wareham Street #A-310 02118","90","Wareham","Street","A-310","02118","#A-310"
"90 Wareham Street #A-404 02118","90","Wareham","Street","A-404","02118","#A-404"
"7 Warren Avenue #2 02116","7","Warren","Avenue","2","02116","#2"
"7 Warren Avenue #7 02116","7","Warren","Avenue","7","02116","#7"
"21 Warren Street #NA 02139","21","Warren","Street",NA,"02139","#NA"
"72 Warren Avenue #101 02116","72","Warren","Avenue","101","02116","#101"
"72 Warren Avenue #201 02116","72","Warren","Avenue","201","02116","#201"
"78 Warren Avenue #101 02116","78","Warren","Avenue","101","02116","#101"
"78 Warren Avenue #201 02116","78","Warren","Avenue","201","02116","#201"
"78 Warren Avenue #302 02116","78","Warren","Avenue","302","02116","#302"
"80 Warren Avenue #80 02116","80","Warren","Avenue","80","02116","#80"
"23B Warren Street #NA 02129","23B","Warren","Street",NA,"02129","#NA"
"453 Washington Street #5E 02111","453","Washington","Street","5E","02111","#5E"
"1200 Washington Street #112 02118","1200","Washington","Street","112","02118","#112"
"1200 Washington Street #115 02118","1200","Washington","Street","115","02118","#115"
"1200 Washington Street #118 02118","1200","Washington","Street","118","02118","#118"
"1200 Washington Street #120 02118","1200","Washington","Street","120","02118","#120"
"1200 Washington Street #209 02118","1200","Washington","Street","209","02118","#209"
"1200 Washington Street #210 02118","1200","Washington","Street","210","02118","#210"
"1200 Washington Street #211 02118","1200","Washington","Street","211","02118","#211"
"1200 Washington Street #212 02118","1200","Washington","Street","212","02118","#212"
"1200 Washington Street #214 02118","1200","Washington","Street","214","02118","#214"
"1200 Washington Street #217 02118","1200","Washington","Street","217","02118","#217"
"1200 Washington Street #221 02118","1200","Washington","Street","221","02118","#221"
"1200 Washington Street #222 02118","1200","Washington","Street","222","02118","#222"
"1200 Washington Street #308 02118","1200","Washington","Street","308","02118","#308"
"1200 Washington Street #309 02118","1200","Washington","Street","309","02118","#309"
"1200 Washington Street #310 02118","1200","Washington","Street","310","02118","#310"
"1200 Washington Street #311 02118","1200","Washington","Street","311","02118","#311"
"1200 Washington Street #313 02118","1200","Washington","Street","313","02118","#313"
"1200 Washington Street #314 02118","1200","Washington","Street","314","02118","#314"
"1200 Washington Street #316 02118","1200","Washington","Street","316","02118","#316"
"1200 Washington Street #317 02118","1200","Washington","Street","317","02118","#317"
"1200 Washington Street #108/110 02118","1200","Washington","Street","108/110","02118","#108/110"
"1200 Washington Street #109/111 02118","1200","Washington","Street","109/111","02118","#109/111"
"1200 Washington Street #112/114 02118","1200","Washington","Street","112/114","02118","#112/114"
"1200 Washington Street #117/119 02118","1200","Washington","Street","117/119","02118","#117/119"
"1313 Washington Street #208 02118","1313","Washington","Street","208","02118","#208"
"1313 Washington Street #209 02118","1313","Washington","Street","209","02118","#209"
"1313 Washington Street #213 02118","1313","Washington","Street","213","02118","#213"
"1313 Washington Street #214 02118","1313","Washington","Street","214","02118","#214"
"1313 Washington Street #216 02118","1313","Washington","Street","216","02118","#216"
"1313 Washington Street #218 02118","1313","Washington","Street","218","02118","#218"
"1313 Washington Street #307 02118","1313","Washington","Street","307","02118","#307"
"1313 Washington Street #308 02118","1313","Washington","Street","308","02118","#308"
"1313 Washington Street #313 02118","1313","Washington","Street","313","02118","#313"
"1313 Washington Street #316 02118","1313","Washington","Street","316","02118","#316"
"1313 Washington Street #318 02118","1313","Washington","Street","318","02118","#318"
"1313 Washington Street #331 02118","1313","Washington","Street","331","02118","#331"
"1313 Washington Street #406 02118","1313","Washington","Street","406","02118","#406"
"1313 Washington Street #407 02118","1313","Washington","Street","407","02118","#407"
"1313 Washington Street #412 02118","1313","Washington","Street","412","02118","#412"
"1313 Washington Street #415 02118","1313","Washington","Street","415","02118","#415"
"1313 Washington Street #417 02118","1313","Washington","Street","417","02118","#417"
"1313 Washington Street #430 02118","1313","Washington","Street","430","02118","#430"
"1313 Washington Street #603 02118","1313","Washington","Street","603","02118","#603"
"1313 Washington Street #604 02118","1313","Washington","Street","604","02118","#604"
"1597 Washington Street #404 02118","1597","Washington","Street","404","02118","#404"
"1597 Washington Street #406 02118","1597","Washington","Street","406","02118","#406"
"1597 Washington Street #407 02118","1597","Washington","Street","407","02118","#407"
"1597 Washington Street #504 02118","1597","Washington","Street","504","02118","#504"
"1597 Washington Street #506 02118","1597","Washington","Street","506","02118","#506"
"1597 Washington Street #507 02118","1597","Washington","Street","507","02118","#507"
"1597 Washington Street #607 02118","1597","Washington","Street","607","02118","#607"
"1721 Washington Street #110 02118","1721","Washington","Street","110","02118","#110"
"1721 Washington Street #303 02118","1721","Washington","Street","303","02118","#303"
"1723 Washington Street #403 02118","1723","Washington","Street","403","02118","#403"
"3193 Washington Street #203 02130","3193","Washington","Street","203","02130","#203"
"3193 Washington Street #208 02130","3193","Washington","Street","208","02130","#208"
"3193 Washington Street #301 02130","3193","Washington","Street","301","02130","#301"
"3193 Washington Street #304 02130","3193","Washington","Street","304","02130","#304"
"3193 Washington Street #307 02130","3193","Washington","Street","307","02130","#307"
"3193 Washington Street #403 02130","3193","Washington","Street","403","02130","#403"
"3193 Washington Street #408 02130","3193","Washington","Street","408","02130","#408"
"4040 Washington Street #4 02131","4040","Washington","Street","4","02131","#4"
"4044 Washington Street #6 02131","4044","Washington","Street","6","02131","#6"
"4048 Washington Street #3 02131","4048","Washington","Street","3","02131","#3"
"5170 Washington Street #205 02132","5170","Washington","Street","205","02132","#205"
"1180-1200 Washington Street #312 02118","1180-1200","Washington","Street","312","02118","#312"
"45 West Broadway #101 02128","45","West","Broadway","101","02128","#101"
"45 West Broadway #105 02134","45","West","Broadway","105","02134","#105"
"45 West Broadway #106 02131","45","West","Broadway","106","02131","#106"
"45 West Broadway #107 02127","45","West","Broadway","107","02127","#107"
"45 West Broadway #110 02118","45","West","Broadway","110","02118","#110"
"45 West Broadway #204 02131","45","West","Broadway","204","02131","#204"
"45 West Broadway #205 02131","45","West","Broadway","205","02131","#205"
"150 West Broadway #4 02127","150","West","Broadway","4","02127","#4"
"150 West Broadway #7 02127","150","West","Broadway","7","02127","#7"
"150 West Broadway #15 02127","150","West","Broadway","15","02127","#15"
"170 West Broadway #202 02127","170","West","Broadway","202","02127","#202"
"170 West Broadway #208 02127","170","West","Broadway","208","02127","#208"
"170 West Broadway #304 02127","170","West","Broadway","304","02127","#304"
"170 West Broadway #309 02127","170","West","Broadway","309","02127","#309"
"143 West Brookline Street #201 02118","143","West Brookline","Street","201","02118","#201"
"143 West Brookline Street #205 02118","143","West Brookline","Street","205","02118","#205"
"143 West Brookline Street #206 02118","143","West Brookline","Street","206","02118","#206"
"143 West Brookline Street #207 02118","143","West Brookline","Street","207","02118","#207"
"143 West Brookline Street #208 02118","143","West Brookline","Street","208","02118","#208"
"143 West Brookline Street #304 02118","143","West Brookline","Street","304","02118","#304"
"143 West Brookline Street #306 02118","143","West Brookline","Street","306","02118","#306"
"143 West Brookline Street #401 02118","143","West Brookline","Street","401","02118","#401"
"143 West Brookline Street #402 02118","143","West Brookline","Street","402","02118","#402"
"143 West Brookline Street #403 02118","143","West Brookline","Street","403","02118","#403"
"143 West Brookline Street #405 02118","143","West Brookline","Street","405","02118","#405"
"143 West Brookline Street #406 02118","143","West Brookline","Street","406","02118","#406"
"143 West Brookline Street #407 02118","143","West Brookline","Street","407","02118","#407"
"143 West Brookline Street #503 02118","143","West Brookline","Street","503","02118","#503"
"143 West Brookline Street #504 02118","143","West Brookline","Street","504","02118","#504"
"28 West Cottage Street #1 02125","28","West Cottage","Street","1","02125","#1"
"28 West Cottage Street #2 02125","28","West Cottage","Street","2","02125","#2"
"28 West Cottage Street #3 02125","28","West Cottage","Street","3","02125","#3"
"28 West Cottage Street #4 02125","28","West Cottage","Street","4","02125","#4"
"396 West First Street #NA 02127","396","West First","Street",NA,"02127","#NA"
"401 West First Street #103 02127","401","West First","Street","103","02127","#103"
"403 West First Street #103 02127","403","West First","Street","103","02127","#103"
"404 West First Street #11 02210","404","West First","Street","11","02210","#11"
"404 West First Street #12 02127","404","West First","Street","12","02127","#12"
"404 West First Street #13 02127","404","West First","Street","13","02127","#13"
"404 West First Street #14 02127","404","West First","Street","14","02127","#14"
"404 West First Street #15 02210","404","West First","Street","15","02210","#15"
"404 West First Street #17 02127","404","West First","Street","17","02127","#17"
"404 West First Street #21 02124","404","West First","Street","21","02124","#21"
"404 West First Street #22 02127","404","West First","Street","22","02127","#22"
"404 West First Street #23 02210","404","West First","Street","23","02210","#23"
"404 West First Street #24 02127","404","West First","Street","24","02127","#24"
"404 West First Street #25 02127","404","West First","Street","25","02127","#25"
"404 West First Street #26 02127","404","West First","Street","26","02127","#26"
"404 West First Street #27 02127","404","West First","Street","27","02127","#27"
"404 West First Street #31 02127","404","West First","Street","31","02127","#31"
"404 West First Street #33 02127","404","West First","Street","33","02127","#33"
"404 West First Street #34 02127","404","West First","Street","34","02127","#34"
"404 West First Street #35 02127","404","West First","Street","35","02127","#35"
"404 West First Street #36 02127","404","West First","Street","36","02127","#36"
"404 West First Street #37 02127","404","West First","Street","37","02127","#37"
"404 West First Street #41 02127","404","West First","Street","41","02127","#41"
"404 West First Street #42 02127","404","West First","Street","42","02127","#42"
"404 West First Street #43 02127","404","West First","Street","43","02127","#43"
"404 West First Street #44 02127","404","West First","Street","44","02127","#44"
"404 West First Street #45 02127","404","West First","Street","45","02127","#45"
"404 West First Street #46 02127","404","West First","Street","46","02127","#46"
"407 West First Street #103 02127","407","West First","Street","103","02127","#103"
"407 West First Street #201 02127","407","West First","Street","201","02127","#201"
"407 West First Street #303 02127","407","West First","Street","303","02127","#303"
"141 West Second Street #103 02127","141","West Second","Street","103","02127","#103"
"321 West Second Street #4 02127","321","West Second","Street","4","02127","#4"
"323 West Second Street #1 02127","323","West Second","Street","1","02127","#1"
"335 West Second Street #11 02127","335","West Second","Street","11","02127","#11"
"335 West Second Street #24 02127","335","West Second","Street","24","02127","#24"
"120 West Seventh Street #205 02135","120","West Seventh","Street","205","02135","#205"
"2 West Sixth Street #101 02127","2","West Sixth","Street","101","02127","#101"
"2 West Sixth Street #103 02127","2","West Sixth","Street","103","02127","#103"
"2 West Sixth Street #204 02127","2","West Sixth","Street","204","02127","#204"
"45 West Third Street #207 02127","45","West Third","Street","207","02127","#207"
"45 West Third Street #210 02127","45","West Third","Street","210","02127","#210"
"45 West Third Street #211 02127","45","West Third","Street","211","02127","#211"
"45 West Third Street #216 02127","45","West Third","Street","216","02127","#216"
"45 West Third Street #217 02127","45","West Third","Street","217","02127","#217"
"45 West Third Street #219 02127","45","West Third","Street","219","02127","#219"
"45 West Third Street #223 02127","45","West Third","Street","223","02127","#223"
"45 West Third Street #301 02127","45","West Third","Street","301","02127","#301"
"45 West Third Street #302 02127","45","West Third","Street","302","02127","#302"
"45 West Third Street #311 02127","45","West Third","Street","311","02127","#311"
"45 West Third Street #325 02127","45","West Third","Street","325","02127","#325"
"45 West Third Street #326 02127","45","West Third","Street","326","02127","#326"
"45 West Third Street #425 02127","45","West Third","Street","425","02127","#425"
"312-320 West Third Street #101 02127","312-320","West Third","Street","101","02127","#101"
"312-320 West Third Street #202 02127","312-320","West Third","Street","202","02127","#202"
"1 Westinghouse Plaza #206 02136","1","Westinghouse","Plaza","206","02136","#206"
"1 Westinghouse Plaza #211 02136","1","Westinghouse","Plaza","211","02136","#211"
"1 Westinghouse Plaza #212 02136","1","Westinghouse","Plaza","212","02136","#212"
"1 Westinghouse Plaza #215 02136","1","Westinghouse","Plaza","215","02136","#215"
"1 Westinghouse Plaza #217 02136","1","Westinghouse","Plaza","217","02136","#217"
"1 Westinghouse Plaza #302 02136","1","Westinghouse","Plaza","302","02136","#302"
"1 Westinghouse Plaza #304 02136","1","Westinghouse","Plaza","304","02136","#304"
"1 Westinghouse Plaza #331 02134","1","Westinghouse","Plaza","331","02134","#331"
"43 Westland Avenue #110 02115","43","Westland","Avenue","110","02115","#110"
"43 Westland Avenue #314 02115","43","Westland","Avenue","314","02115","#314"
"11 Whipple Avenue #6 02131","11","Whipple","Avenue","6","02131","#6"
"21 Wormwood Street #210 02210","21","Wormwood","Street","210","02210","#210"
"21 Wormwood Street #212 02210","21","Wormwood","Street","212","02210","#212"
"21 Wormwood Street #217 02210","21","Wormwood","Street","217","02210","#217"
"21 Wormwood Street #223 02210","21","Wormwood","Street","223","02210","#223"
"21 Wormwood Street #301 02210","21","Wormwood","Street","301","02210","#301"
"21 Wormwood Street #305 02210","21","Wormwood","Street","305","02210","#305"
"21 Wormwood Street #306 02210","21","Wormwood","Street","306","02210","#306"
"21 Wormwood Street #319 02210","21","Wormwood","Street","319","02210","#319"
"21 Wormwood Street #406 02210","21","Wormwood","Street","406","02210","#406"
"21 Wormwood Street #410 02210","21","Wormwood","Street","410","02210","#410"
"21 Wormwood Street #419 02210","21","Wormwood","Street","419","02210","#419"
"21 Wormwood Street #507 02210","21","Wormwood","Street","507","02210","#507"
"21 Wormwood Street #519 02210","21","Wormwood","Street","519","02210","#519"
"21 Wormwood Street #523 02210","21","Wormwood","Street","523","02210","#523"
