"Street #","Street Name","Street suffix","Unit #","ZIP","SAM ID","Address"
"39","A","Street","6",2127,350974,"39 A Street #6 02127"
"39","A","Street","10",2127,350974,"39 A Street #10 02127"
"39","A","Street","15",2127,350974,"39 A Street #15 02127"
"80","A","Street","5",2127,57,"80 A Street #5 02127"
"319","A","Street","203",2210,419692,"319 A Street #203 02210"
"319","A","Street","209",2210,419692,"319 A Street #209 02210"
"319","A","Street","304",2210,419692,"319 A Street #304 02210"
"319","A","Street","312",2210,419692,"319 A Street #312 02210"
"615","Adams","Street","A",2124,853,"615 Adams Street #A 02124"
"1241-1255","Adams","Street","103",2124,383532,"1241-1255 Adams Street #103 02124"
"1241-1255","Adams","Street","104",2124,383533,"1241-1255 Adams Street #104 02124"
"1241-1255","Adams","Street","206",2124,383545,"1241-1255 Adams Street #206 02124"
"1241-1255","Adams","Street","209",2124,383548,"1241-1255 Adams Street #209 02124"
"1241-1255","Adams","Street","302",2124,383554,"1241-1255 Adams Street #302 02124"
"1241-1255","Adams","Street","305",2124,383557,"1241-1255 Adams Street #305 02124"
"1241-1255","Adams","Street","402",2124,383514,"1241-1255 Adams Street #402 02124"
"1241-1255","Adams","Street","505",2124,383593,"1241-1255 Adams Street #505 02124"
"82","Alleghany","Street",NA,2127,172177,"82 Alleghany Street #NA 02127"
"84","Alleghany","Street",NA,2127,419795,"84 Alleghany Street #NA 02127"
"25","Alpine","Street","2",2136,2897,"25 Alpine Street #2 02136"
"25","Alpine","Street","5",2136,2900,"25 Alpine Street #5 02136"
"25","Alpine","Street","23",2134,2918,"25 Alpine Street #23 02134"
"25","Alpine","Street","27",2128,2922,"25 Alpine Street #27 02128"
"30","B","Street","202",2127,352425,"30 B Street #202 02127"
"125","B","Street","1D",2127,7362,"125 B Street #1D 02127"
"125","B","Street","3C",2127,7362,"125 B Street #3C 02127"
"141","B","Street","2",2127,7383,"141 B Street #2 02127"
"32","Baldwin","Street",NA,2129,7874,"32 Baldwin Street #NA 02129"
"34","Baldwin","Street",NA,2129,7875,"34 Baldwin Street #NA 02129"
"40","Baldwin","Street",NA,2129,7881,"40 Baldwin Street #NA 02129"
"42","Baldwin","Street",NA,2129,7883,"42 Baldwin Street #NA 02129"
"111","Beach","Street","2F",2134,359266,"111 Beach Street #2F 02134"
"111","Beach","Street","3F",2134,359275,"111 Beach Street #3F 02134"
"111","Beach","Street","3G",2128,359310,"111 Beach Street #3G 02128"
"42-44","Beach","Street","4A",2111,348252,"42-44 Beach Street #4A 02111"
"2400","Beacon","Street","111",2467,10400,"2400 Beacon Street #111 02467"
"2400","Beacon","Street","205",2467,10408,"2400 Beacon Street #205 02467"
"2400","Beacon","Street","206",2467,10409,"2400 Beacon Street #206 02467"
"2400","Beacon","Street","207",2467,10410,"2400 Beacon Street #207 02467"
"2400","Beacon","Street","212",2467,10415,"2400 Beacon Street #212 02467"
"2400","Beacon","Street","214",2467,10417,"2400 Beacon Street #214 02467"
"2400","Beacon","Street","305",2467,10423,"2400 Beacon Street #305 02467"
"2400","Beacon","Street","306",2467,10424,"2400 Beacon Street #306 02467"
"2400","Beacon","Street","314",2467,10432,"2400 Beacon Street #314 02467"
"2400","Beacon","Street","413",2467,10446,"2400 Beacon Street #413 02467"
"2400","Beacon","Street","513",2467,10460,"2400 Beacon Street #513 02467"
"142","Bigelow","Street","101",2135,15363,"142 Bigelow Street #101 02135"
"142","Bigelow","Street","205",2135,15373,"142 Bigelow Street #205 02135"
"142","Bigelow","Street","302",2135,15376,"142 Bigelow Street #302 02135"
"564","Blue Hill","Avenue","1",2121,190093,"564 Blue Hill Avenue #1 02121"
"564","Blue Hill","Avenue","2",2121,190094,"564 Blue Hill Avenue #2 02121"
"564","Blue Hill","Avenue","4",2121,190096,"564 Blue Hill Avenue #4 02121"
"10","Bowdoin","Street","6",2130,17530,"10 Bowdoin Street #6 02130"
"10","Bowdoin","Street","203",2129,17533,"10 Bowdoin Street #203 02129"
"10","Bowdoin","Street","204",2129,17534,"10 Bowdoin Street #204 02129"
"10","Bowdoin","Street","205",2127,17535,"10 Bowdoin Street #205 02127"
"10","Bowdoin","Street","206",2127,348221,"10 Bowdoin Street #206 02127"
"10","Bowdoin","Street","208",2127,17462,"10 Bowdoin Street #208 02127"
"10","Bowdoin","Street","209",2114,17520,"10 Bowdoin Street #209 02114"
"10","Bowdoin","Street","214",2114,17520,"10 Bowdoin Street #214 02114"
"10","Bowdoin","Street","302",2135,17470,"10 Bowdoin Street #302 02135"
"10","Bowdoin","Street","308",2135,17476,"10 Bowdoin Street #308 02135"
"10","Bowdoin","Street","309",2114,17520,"10 Bowdoin Street #309 02114"
"10","Bowdoin","Street","313",2114,17520,"10 Bowdoin Street #313 02114"
"10","Bowdoin","Street","315",2108,17483,"10 Bowdoin Street #315 02108"
"10","Bowdoin","Street","316",2135,17484,"10 Bowdoin Street #316 02135"
"10","Bowdoin","Street","404",2114,17520,"10 Bowdoin Street #404 02114"
"10","Bowdoin","Street","410",2114,17520,"10 Bowdoin Street #410 02114"
"10","Bowdoin","Street","414",2135,17499,"10 Bowdoin Street #414 02135"
"10","Bowdoin","Street","502",2135,17505,"10 Bowdoin Street #502 02135"
"70","Bremen","Street","203",2128,350924,"70 Bremen Street #203 02128"
"70","Bremen","Street","208",2128,350924,"70 Bremen Street #208 02128"
"70","Bremen","Street","301",2128,350924,"70 Bremen Street #301 02128"
"70","Bremen","Street","403",2128,350924,"70 Bremen Street #403 02128"
"70","Bremen","Street","504",2128,350924,"70 Bremen Street #504 02128"
"80","Broad","Street","206",2110,20494,"80 Broad Street #206 02110"
"80","Broad","Street","506",2110,20521,"80 Broad Street #506 02110"
"80","Broad","Street","709",2110,20542,"80 Broad Street #709 02110"
"374-398","Bunker Hill","Street","103",2129,420879,"374-398 Bunker Hill Street #103 02129"
"374-398","Bunker Hill","Street","105",2129,420881,"374-398 Bunker Hill Street #105 02129"
"374-398","Bunker Hill","Street","109",2129,420885,"374-398 Bunker Hill Street #109 02129"
"374-398","Bunker Hill","Street","114",2129,420890,"374-398 Bunker Hill Street #114 02129"
"374-398","Bunker Hill","Street","204",2129,420897,"374-398 Bunker Hill Street #204 02129"
"374-398","Bunker Hill","Street","216",2129,420909,"374-398 Bunker Hill Street #216 02129"
"73","Burroughs","Street","G",2130,24074,"73 Burroughs Street #G 02130"
"18","Business","Terrace","18",2136,24277,"18 Business Terrace #18 02136"
"29","Business","Terrace","29",2136,24291,"29 Business Terrace #29 02136"
"16A","Business","Terrace","16A",2136,413086,"16A Business Terrace #16A 02136"
"533","Cambridge","Street","104",2134,345548,"533 Cambridge Street #104 02134"
"533","Cambridge","Street","109",2134,345553,"533 Cambridge Street #109 02134"
"533","Cambridge","Street","202",2134,345558,"533 Cambridge Street #202 02134"
"533","Cambridge","Street","210",2134,345566,"533 Cambridge Street #210 02134"
"533","Cambridge","Street","305",2134,345573,"533 Cambridge Street #305 02134"
"533","Cambridge","Street","308",2134,345576,"533 Cambridge Street #308 02134"
"327","Centre","Street","206",2130,396313,"327 Centre Street #206 02130"
"319-329A","Centre","Street","303",2130,396319,"319-329A Centre Street #303 02130"
"35","Channel Center","Street","203",2210,28936,"35 Channel Center Street #203 02210"
"35","Channel Center","Street","207",2210,28940,"35 Channel Center Street #207 02210"
"35","Channel Center","Street","208",2210,28941,"35 Channel Center Street #208 02210"
"35","Channel Center","Street","304",2210,28948,"35 Channel Center Street #304 02210"
"35","Channel Center","Street","309",2210,28953,"35 Channel Center Street #309 02210"
"35","Channel Center","Street","408",2210,28963,"35 Channel Center Street #408 02210"
"5","Charles","Street",NA,2129,29232,"5 Charles Street #NA 02129"
"9","Charles","Street",NA,2129,29235,"9 Charles Street #NA 02129"
"17","Charles","Street","A6",2129,29225,"17 Charles Street #A6 02129"
"42","Chauncy","Street","2C",2110,30110,"42 Chauncy Street #2C 02110"
"42","Chauncy","Street","2D",2111,30111,"42 Chauncy Street #2D 02111"
"42","Chauncy","Street","3D",2111,30113,"42 Chauncy Street #3D 02111"
"42","Chauncy","Street","4D",2111,359183,"42 Chauncy Street #4D 02111"
"65","Chelsea","Street","C1-103",2129,30214,"65 Chelsea Street #C1-103 02129"
"65","Chelsea","Street","C1-203",2129,30223,"65 Chelsea Street #C1-203 02129"
"65","Chelsea","Street","C1-204",2129,30224,"65 Chelsea Street #C1-204 02129"
"65","Chelsea","Street","C1-205",2129,30225,"65 Chelsea Street #C1-205 02129"
"65","Chelsea","Street","C1-304",2129,30233,"65 Chelsea Street #C1-304 02129"
"65","Chelsea","Street","C1-305",2129,30234,"65 Chelsea Street #C1-305 02129"
"73","Chelsea","Street","C2-103",2129,30249,"73 Chelsea Street #C2-103 02129"
"73","Chelsea","Street","C2-203",2129,30258,"73 Chelsea Street #C2-203 02129"
"73","Chelsea","Street","C2-204",2129,30259,"73 Chelsea Street #C2-204 02129"
"73","Chelsea","Street","C2-205",2129,30260,"73 Chelsea Street #C2-205 02129"
"73","Chelsea","Street","C2-304",2129,30268,"73 Chelsea Street #C2-304 02129"
"73","Chelsea","Street","C2-305",2129,30269,"73 Chelsea Street #C2-305 02129"
"2","Chestnut","Street",NA,2129,395517,"2 Chestnut Street #NA 02129"
"4","Chestnut","Street",NA,2129,395518,"4 Chestnut Street #NA 02129"
"6","Chestnut","Street",NA,2129,395519,"6 Chestnut Street #NA 02129"
"8","Chestnut","Street",NA,2129,421105,"8 Chestnut Street #NA 02129"
"99","Chestnut Hill","Avenue","102",2135,31948,"99 Chestnut Hill Avenue #102 02135"
"99","Chestnut Hill","Avenue","104",2135,31950,"99 Chestnut Hill Avenue #104 02135"
"163","Chestnut Hill","Avenue","102",2128,408614,"163 Chestnut Hill Avenue #102 02128"
"163","Chestnut Hill","Avenue","204",2128,408622,"163 Chestnut Hill Avenue #204 02128"
"163","Chestnut Hill","Avenue","301",2134,408625,"163 Chestnut Hill Avenue #301 02134"
"165","Chestnut Hill","Avenue","8",2135,408601,"165 Chestnut Hill Avenue #8 02135"
"6","Clarendon","Street","301",2116,33322,"6 Clarendon Street #301 02116"
"14","Clarendon","Street","201",2116,33139,"14 Clarendon Street #201 02116"
"14","Clarendon","Street","301",2116,33141,"14 Clarendon Street #301 02116"
"14","Clarendon","Street","401",2116,33143,"14 Clarendon Street #401 02116"
"71","Cliffmont","Street",NA,2131,33889,"71 Cliffmont Street #NA 02131"
"73","Cliffmont","Street",NA,2131,33890,"73 Cliffmont Street #NA 02131"
"1306","Columbia","Road","1B",2127,35021,"1306 Columbia Road #1B 02127"
"1306","Columbia","Road","1D",2127,35023,"1306 Columbia Road #1D 02127"
"285","Columbus","Avenue","201",2116,345837,"285 Columbus Avenue #201 02116"
"285","Columbus","Avenue","202",2116,345838,"285 Columbus Avenue #202 02116"
"285","Columbus","Avenue","209",2116,345845,"285 Columbus Avenue #209 02116"
"285","Columbus","Avenue","301",2116,345846,"285 Columbus Avenue #301 02116"
"285","Columbus","Avenue","304",2116,344907,"285 Columbus Avenue #304 02116"
"285","Columbus","Avenue","308",2116,345852,"285 Columbus Avenue #308 02116"
"285","Columbus","Avenue","402",2116,345854,"285 Columbus Avenue #402 02116"
"285","Columbus","Avenue","403",2116,345855,"285 Columbus Avenue #403 02116"
"352","Columbus","Avenue","5",2116,35654,"352 Columbus Avenue #5 02116"
"354","Columbus","Avenue","3",2116,35655,"354 Columbus Avenue #3 02116"
"356","Columbus","Avenue","4",2116,35656,"356 Columbus Avenue #4 02116"
"301-319","Columbus","Avenue","201",2127,348407,"301-319 Columbus Avenue #201 02127"
"301-319","Columbus","Avenue","202",2116,348406,"301-319 Columbus Avenue #202 02116"
"440","Commercial","Street","203",2109,356849,"440 Commercial Street #203 02109"
"440","Commercial","Street","303",2109,356849,"440 Commercial Street #303 02109"
"1650","Commonwealth","Avenue","201",2135,38205,"1650 Commonwealth Avenue #201 02135"
"1650","Commonwealth","Avenue","307",2135,38205,"1650 Commonwealth Avenue #307 02135"
"1650","Commonwealth","Avenue","401",2135,38205,"1650 Commonwealth Avenue #401 02135"
"1650","Commonwealth","Avenue","502",2135,38205,"1650 Commonwealth Avenue #502 02135"
"1650","Commonwealth","Avenue","601",2135,38205,"1650 Commonwealth Avenue #601 02135"
"346-354","Congress","Street","102",2210,342794,"346-354 Congress Street #102 02210"
"346-354","Congress","Street","104",2210,342794,"346-354 Congress Street #104 02210"
"346-354","Congress","Street","106",2210,342794,"346-354 Congress Street #106 02210"
"346-354","Congress","Street","201",2210,349841,"346-354 Congress Street #201 02210"
"346-354","Congress","Street","303",2210,348737,"346-354 Congress Street #303 02210"
"346-354","Congress","Street","314",2210,348738,"346-354 Congress Street #314 02210"
"346-354","Congress","Street","416",2210,348676,"346-354 Congress Street #416 02210"
"346-354","Congress","Street","514",2210,342794,"346-354 Congress Street #514 02210"
"65","Cornwall","Street","110",2130,43137,"65 Cornwall Street #110 02130"
"65","Cornwall","Street","204",2130,43121,"65 Cornwall Street #204 02130"
"65","Cornwall","Street","208",2130,43139,"65 Cornwall Street #208 02130"
"345","D","Street","2",2127,45496,"345 D Street #2 02127"
"12","Dacy","Street","11",2136,45590,"12 Dacy Street #11 02136"
"25","Dale","Street","1",2119,45722,"25 Dale Street #1 02119"
"25","Dale","Street","2",2119,45723,"25 Dale Street #2 02119"
"25","Dale","Street","3",2119,45724,"25 Dale Street #3 02119"
"25","Dale","Street","4",2119,45725,"25 Dale Street #4 02119"
"141","Dorchester","Avenue","514",2127,340495,"141 Dorchester Avenue #514 02127"
"141","Dorchester","Avenue","LW-201",2127,343385,"141 Dorchester Avenue #LW-201 02127"
"150","Dorchester","Avenue","103",2127,344719,"150 Dorchester Avenue #103 02127"
"150","Dorchester","Avenue","205",2127,344729,"150 Dorchester Avenue #205 02127"
"150","Dorchester","Avenue","208",2727,344732,"150 Dorchester Avenue #208 02727"
"150","Dorchester","Avenue","303",2127,344735,"150 Dorchester Avenue #303 02127"
"150","Dorchester","Avenue","306",2127,344737,"150 Dorchester Avenue #306 02127"
"150","Dorchester","Avenue","402",2127,344741,"150 Dorchester Avenue #402 02127"
"225","Dorchester","Street","12",2127,352614,"225 Dorchester Street #12 02127"
"225","Dorchester","Street","17",2127,352614,"225 Dorchester Street #17 02127"
"225","Dorchester","Street","23",2127,352614,"225 Dorchester Street #23 02127"
"225","Dorchester","Street","28",2127,352614,"225 Dorchester Street #28 02127"
"488","Dorchester","Avenue","2F",2127,421255,"488 Dorchester Avenue #2F 02127"
"488","Dorchester","Avenue","2J",2127,421257,"488 Dorchester Avenue #2J 02127"
"488","Dorchester","Avenue","3E",2127,421258,"488 Dorchester Avenue #3E 02127"
"488","Dorchester","Avenue","3H",2127,421259,"488 Dorchester Avenue #3H 02127"
"944","Dorchester","Avenue","6",2125,48787,"944 Dorchester Avenue #6 02125"
"944","Dorchester","Avenue","14",2125,48787,"944 Dorchester Avenue #14 02125"
"944","Dorchester","Avenue","16",2125,48787,"944 Dorchester Avenue #16 02125"
"944","Dorchester","Avenue","24",2125,345329,"944 Dorchester Avenue #24 02125"
"944","Dorchester","Avenue","26",2125,48787,"944 Dorchester Avenue #26 02125"
"944","Dorchester","Avenue","27",2125,48787,"944 Dorchester Avenue #27 02125"
"944","Dorchester","Avenue","31",2125,48787,"944 Dorchester Avenue #31 02125"
"944","Dorchester","Avenue","32",2125,48787,"944 Dorchester Avenue #32 02125"
"950","Dorchester","Avenue","203",2125,48794,"950 Dorchester Avenue #203 02125"
"950","Dorchester","Avenue","206",2125,48797,"950 Dorchester Avenue #206 02125"
"148-152","Dorchester","Street","111",2127,225731,"148-152 Dorchester Street #111 02127"
"148-152","Dorchester","Street","210",2127,225731,"148-152 Dorchester Street #210 02127"
"148-152","Dorchester","Street","311",2127,225731,"148-152 Dorchester Street #311 02127"
"148-152","Dorchester","Street","414",2127,225731,"148-152 Dorchester Street #414 02127"
"1971-1977","Dorchester","Avenue","5003",2124,353154,"1971-1977 Dorchester Avenue #5003 02124"
"1971-1977","Dorchester","Avenue","5009",2124,353154,"1971-1977 Dorchester Avenue #5009 02124"
"1971-1977","Dorchester","Avenue","5016",2124,353154,"1971-1977 Dorchester Avenue #5016 02124"
"1971-1977","Dorchester","Avenue","6016",2124,353154,"1971-1977 Dorchester Avenue #6016 02124"
"205","E","Street","18S",2127,341801,"205 E Street #18S 02127"
"205","E","Street","1N",2127,341801,"205 E Street #1N 02127"
"205","E","Street","4S",2127,341801,"205 E Street #4S 02127"
"205","E","Street","7N",2127,341801,"205 E Street #7N 02127"
"309","E","Street","26",2127,355744,"309 E Street #26 02127"
"309","E","Street","34",2127,355748,"309 E Street #34 02127"
"69","East Berkeley","Street","69-4",2118,15116,"69 East Berkeley Street #69-4 02118"
"69","East Berkeley","Street","69-7",2118,15119,"69 East Berkeley Street #69-7 02118"
"73","East Berkeley","Street","73-1",2118,15123,"73 East Berkeley Street #73-1 02118"
"73","East Berkeley","Street","73-2",2118,15124,"73 East Berkeley Street #73-2 02118"
"73","East Berkeley","Street","73-4",2118,15126,"73 East Berkeley Street #73-4 02118"
"73","East Berkeley","Street","73-5",2118,15127,"73 East Berkeley Street #73-5 02118"
"73","East Berkeley","Street","73-6",2118,15128,"73 East Berkeley Street #73-6 02118"
"73","East Berkeley","Street","73-7",2118,15129,"73 East Berkeley Street #73-7 02118"
"77","East Berkeley","Street","77-1",2118,15130,"77 East Berkeley Street #77-1 02118"
"77","East Berkeley","Street","77-10",2118,15136,"77 East Berkeley Street #77-10 02118"
"77","East Berkeley","Street","77-2",2118,15131,"77 East Berkeley Street #77-2 02118"
"77","East Berkeley","Street","77-6",2118,15135,"77 East Berkeley Street #77-6 02118"
"77","East Berkeley","Street","77-7",2118,15136,"77 East Berkeley Street #77-7 02118"
"77","East Berkeley","Street","77-8",2118,15137,"77 East Berkeley Street #77-8 02118"
"77","East Berkeley","Street","77-9",2118,15138,"77 East Berkeley Street #77-9 02118"
"81","East Berkeley","Street","81-1",2118,174876,"81 East Berkeley Street #81-1 02118"
"81","East Berkeley","Street","81-2",2118,174876,"81 East Berkeley Street #81-2 02118"
"81","East Berkeley","Street","81-3",2118,174876,"81 East Berkeley Street #81-3 02118"
"81","East Berkeley","Street","81-4",2118,174876,"81 East Berkeley Street #81-4 02118"
"81","East Berkeley","Street","81-5",2118,174876,"81 East Berkeley Street #81-5 02118"
"81","East Berkeley","Street","81-6",2118,174876,"81 East Berkeley Street #81-6 02118"
"81","East Berkeley","Street","81-7",2118,174876,"81 East Berkeley Street #81-7 02118"
"139","East Berkeley","Street","101",2118,372696,"139 East Berkeley Street #101 02118"
"139","East Berkeley","Street","102",2118,372697,"139 East Berkeley Street #102 02118"
"621","East First","Street","A-1",2127,58382,"621 East First Street #A-1 02127"
"621","East First","Street","A-7",2127,58382,"621 East First Street #A-7 02127"
"621","East First","Street","B-3",2127,58382,"621 East First Street #B-3 02127"
"621","East First","Street","B-4",2127,58382,"621 East First Street #B-4 02127"
"616","East Fourth","Street","101",2127,59901,"616 East Fourth Street #101 02127"
"616","East Fourth","Street","103",2127,59901,"616 East Fourth Street #103 02127"
"616","East Fourth","Street","206",2210,59901,"616 East Fourth Street #206 02210"
"525","East Second","Street","4",2127,124336,"525 East Second Street #4 02127"
"655","East Second","Street","105",2127,388204,"655 East Second Street #105 02127"
"655","East Second","Street","109",2127,388208,"655 East Second Street #109 02127"
"881","East Second","Street","3",2127,428727,"881 East Second Street #3 02127"
"881","East Second","Street","8",2127,428732,"881 East Second Street #8 02127"
"10","East Springfield","Street","2",2118,129772,"10 East Springfield Street #2 02118"
"770","East Third","Street","4",2127,344942,"770 East Third Street #4 02127"
"772","East Third","Street","4",2127,349881,"772 East Third Street #4 02127"
"181","Essex","Street","E-203",2111,54299,"181 Essex Street #E-203 02111"
"181","Essex","Street","E-301",2111,54302,"181 Essex Street #E-301 02111"
"181","Essex","Street","E-305",2111,54306,"181 Essex Street #E-305 02111"
"181","Essex","Street","E-401",2111,54307,"181 Essex Street #E-401 02111"
"21","Father Francis J. Gilday","Street","509",2118,56702,"21 Father Francis J. Gilday Street #509 02118"
"35","Fay","Street","E-210",2118,56851,"35 Fay Street #E-210 02118"
"35","Fay","Street","E-212",2118,56853,"35 Fay Street #E-212 02118"
"35","Fay","Street","E-216",2118,56856,"35 Fay Street #E-216 02118"
"35","Fay","Street","E-306",2118,56863,"35 Fay Street #E-306 02118"
"35","Fay","Street","E-310",2118,56867,"35 Fay Street #E-310 02118"
"35","Fay","Street","E-312",2118,56869,"35 Fay Street #E-312 02118"
"35","Fay","Street","E-406",2118,56879,"35 Fay Street #E-406 02118"
"40","Fay","Street","H-203",2118,56909,"40 Fay Street #H-203 02118"
"40","Fay","Street","H-204",2118,56910,"40 Fay Street #H-204 02118"
"40","Fay","Street","H-205",2118,56911,"40 Fay Street #H-205 02118"
"40","Fay","Street","H-304",2118,56917,"40 Fay Street #H-304 02118"
"40","Fay","Street","H-305",2118,56918,"40 Fay Street #H-305 02118"
"40","Fay","Street","H-404",2118,56924,"40 Fay Street #H-404 02118"
"45","First","Avenue","108",2129,429211,"45 First Avenue #108 02129"
"45","First","Avenue","112",2129,429214,"45 First Avenue #112 02129"
"45","First","Avenue","201",2129,429215,"45 First Avenue #201 02129"
"45","First","Avenue","206",2129,429220,"45 First Avenue #206 02129"
"45","First","Avenue","210",2129,429224,"45 First Avenue #210 02129"
"45","First","Avenue","306",2129,429231,"45 First Avenue #306 02129"
"45","First","Avenue","310",2129,429234,"45 First Avenue #310 02129"
"45","First","Avenue","313",2129,343215,"45 First Avenue #313 02129"
"45","First","Avenue","401",2129,429237,"45 First Avenue #401 02129"
"45","First","Avenue","406",2129,429242,"45 First Avenue #406 02129"
"45","First","Avenue","410",2129,429245,"45 First Avenue #410 02129"
"110","First","Avenue","101",2129,394412,"110 First Avenue #101 02129"
"110","First","Avenue","102",2129,394413,"110 First Avenue #102 02129"
"110","First","Avenue","201",2129,394416,"110 First Avenue #201 02129"
"110","First","Avenue","202",2129,394417,"110 First Avenue #202 02129"
"110","First","Avenue","301",2129,394418,"110 First Avenue #301 02129"
"110","First","Avenue","302",2129,394419,"110 First Avenue #302 02129"
"110","First","Avenue","303",2129,394420,"110 First Avenue #303 02129"
"110","First","Avenue","304",2129,394421,"110 First Avenue #304 02129"
"110","First","Avenue","401",2129,394406,"110 First Avenue #401 02129"
"110","First","Avenue","402",2129,394407,"110 First Avenue #402 02129"
"110","First","Avenue","403",2129,394408,"110 First Avenue #403 02129"
"110","First","Avenue","404",2129,394409,"110 First Avenue #404 02129"
"110","First","Avenue","501",2129,394401,"110 First Avenue #501 02129"
"110","First","Avenue","502",2129,394402,"110 First Avenue #502 02129"
"110","First","Avenue","503",2129,165260,"110 First Avenue #503 02129"
"110","First","Avenue","504",2129,394415,"110 First Avenue #504 02129"
"110","First","Avenue","601",2129,394403,"110 First Avenue #601 02129"
"110","First","Avenue","602",2129,394404,"110 First Avenue #602 02129"
"24","Forbes","Street","1",2130,159448,"24 Forbes Street #1 02130"
"26","Forbes","Street","1",2130,160442,"26 Forbes Street #1 02130"
"28","Forbes","Street","1",2130,160500,"28 Forbes Street #1 02130"
"100","Fulton","Street","1R",2109,357084,"100 Fulton Street #1R 02109"
"100","Fulton","Street","1S",2109,357085,"100 Fulton Street #1S 02109"
"100","Fulton","Street","1T",2109,357086,"100 Fulton Street #1T 02109"
"100","Fulton","Street","2A",2109,357115,"100 Fulton Street #2A 02109"
"100","Fulton","Street","2V",2109,61266,"100 Fulton Street #2V 02109"
"100","Fulton","Street","3V",2109,61275,"100 Fulton Street #3V 02109"
"431","Gallivan","Boulevard",NA,2124,383244,"431 Gallivan Boulevard #NA 02124"
"435","Gallivan","Boulevard",NA,2124,383246,"435 Gallivan Boulevard #NA 02124"
"1","Garden","Street","1",2114,62438,"1 Garden Street #1 02114"
"9","Gardner","Street","4",2134,349753,"9 Gardner Street #4 02134"
"9","Gardner","Street","6",2134,349755,"9 Gardner Street #6 02134"
"120","George","Street","1",2119,240844,"120 George Street #1 02119"
"120","George","Street","2",2119,240845,"120 George Street #2 02119"
"120","George","Street","3",2121,240846,"120 George Street #3 02121"
"120","George","Street","4",2121,240847,"120 George Street #4 02121"
"2","Glenwood","Avenue","1",2136,64804,"2 Glenwood Avenue #1 02136"
"6","Gordon","Avenue","6",2136,350094,"6 Gordon Avenue #6 02136"
"8","Gordon","Avenue","8",2136,65397,"8 Gordon Avenue #8 02136"
"23A","Grantley","Street","1",2136,65958,"23A Grantley Street #1 02136"
"25B","Grantley","Street","6",2136,65963,"25B Grantley Street #6 02136"
"111","Green","Street","101",2130,396984,"111 Green Street #101 02130"
"111","Green","Street","202",2130,396987,"111 Green Street #202 02130"
"131","Green","Street","107",2130,349495,"131 Green Street #107 02130"
"156","Green","Street","202",2130,165762,"156 Green Street #202 02130"
"156","Green","Street","305",2130,165762,"156 Green Street #305 02130"
"101A","Grew","Avenue","IV-8",2131,67047,"101A Grew Avenue #IV-8 02131"
"103B","Grew","Avenue","IV-7",2131,67049,"103B Grew Avenue #IV-7 02131"
"83A","Grew","Avenue","VI-2",2131,67141,"83A Grew Avenue #VI-2 02131"
"83B","Grew","Avenue","VI-1",2131,67140,"83B Grew Avenue #VI-1 02131"
"85B","Grew","Avenue","VI-3",2131,67143,"85B Grew Avenue #VI-3 02131"
"89B","Grew","Avenue","VI-7",2131,67146,"89B Grew Avenue #VI-7 02131"
"97A","Grew","Avenue","V-2",2131,67156,"97A Grew Avenue #V-2 02131"
"725","Harrison","Avenue","E-101",2118,371816,"725 Harrison Avenue #E-101 02118"
"725","Harrison","Avenue","E-201",2118,70004,"725 Harrison Avenue #E-201 02118"
"725","Harrison","Avenue","E-203",2118,70006,"725 Harrison Avenue #E-203 02118"
"725","Harrison","Avenue","E-305",2118,70011,"725 Harrison Avenue #E-305 02118"
"725","Harrison","Avenue","E-401",2118,70013,"725 Harrison Avenue #E-401 02118"
"725","Harrison","Avenue","E-405",2118,70017,"725 Harrison Avenue #E-405 02118"
"725","Harrison","Avenue","E-406",2118,70018,"725 Harrison Avenue #E-406 02118"
"725","Harrison","Avenue","E-501",2118,70019,"725 Harrison Avenue #E-501 02118"
"725","Harrison","Avenue","E-506",2118,70024,"725 Harrison Avenue #E-506 02118"
"735","Harrison","Avenue","W-102",2118,70027,"735 Harrison Avenue #W-102 02118"
"735","Harrison","Avenue","W-201",2118,70034,"735 Harrison Avenue #W-201 02118"
"735","Harrison","Avenue","W-202",2118,70035,"735 Harrison Avenue #W-202 02118"
"735","Harrison","Avenue","W-203",2118,70036,"735 Harrison Avenue #W-203 02118"
"735","Harrison","Avenue","W-301",2118,70037,"735 Harrison Avenue #W-301 02118"
"735","Harrison","Avenue","W-302",2118,70038,"735 Harrison Avenue #W-302 02118"
"735","Harrison","Avenue","W-303",2118,70039,"735 Harrison Avenue #W-303 02118"
"735","Harrison","Avenue","W-304",2118,70040,"735 Harrison Avenue #W-304 02118"
"735","Harrison","Avenue","W-305",2118,70041,"735 Harrison Avenue #W-305 02118"
"735","Harrison","Avenue","W-401",2118,70043,"735 Harrison Avenue #W-401 02118"
"735","Harrison","Avenue","W-402",2118,70044,"735 Harrison Avenue #W-402 02118"
"735","Harrison","Avenue","W-403",2118,70045,"735 Harrison Avenue #W-403 02118"
"735","Harrison","Avenue","W-404",2118,70046,"735 Harrison Avenue #W-404 02118"
"735","Harrison","Avenue","W-405",2118,70047,"735 Harrison Avenue #W-405 02118"
"2","Hawthorne","Place","14K",2114,166150,"2 Hawthorne Place #14K 02114"
"251","Heath","Street","101",2130,160134,"251 Heath Street #101 02130"
"251","Heath","Street","104",2130,159428,"251 Heath Street #104 02130"
"251","Heath","Street","109",2130,159454,"251 Heath Street #109 02130"
"251","Heath","Street","212",2130,161234,"251 Heath Street #212 02130"
"251","Heath","Street","302",2130,158593,"251 Heath Street #302 02130"
"251","Heath","Street","307",2130,159837,"251 Heath Street #307 02130"
"251","Heath","Street","412",2130,160350,"251 Heath Street #412 02130"
"251","Heath","Street","415",2130,158581,"251 Heath Street #415 02130"
"4A","Herman","Street","4A",2119,374326,"4A Herman Street #4A 02119"
"67","Highland","Street","1",2119,155312,"67 Highland Street #1 02119"
"75","Highland","Street","2",2119,73817,"75 Highland Street #2 02119"
"226-232","Highland","Street","230",2119,343899,"226-232 Highland Street #230 02119"
"18","Hollander","Street","18",2135,74613,"18 Hollander Street #18 02135"
"20","Hollander","Street","20",2121,74614,"20 Hollander Street #20 02121"
"22","Hollander","Street","22",2135,74615,"22 Hollander Street #22 02135"
"24","Hollander","Street","24",2135,74616,"24 Hollander Street #24 02135"
"26","Hollander","Street","26",2135,74618,"26 Hollander Street #26 02135"
"28","Hollander","Street","28",2114,74620,"28 Hollander Street #28 02114"
"30","Hollander","Street","30",2114,74622,"30 Hollander Street #30 02114"
"32","Hollander","Street","32",2121,74624,"32 Hollander Street #32 02121"
"34","Hollander","Street","34",2114,74626,"34 Hollander Street #34 02114"
"36","Hollander","Street","36",2127,74628,"36 Hollander Street #36 02127"
"38","Hollander","Street","38",2121,74630,"38 Hollander Street #38 02121"
"40","Hollander","Street","40",2121,74632,"40 Hollander Street #40 02121"
"44","Hollander","Street","44",2121,74635,"44 Hollander Street #44 02121"
"46","Hollander","Street","46",2121,74636,"46 Hollander Street #46 02121"
"113","Holton","Street","1",2135,347394,"113 Holton Street #1 02135"
"115","Holton","Street","3",2127,347395,"115 Holton Street #3 02127"
"117","Holton","Street","5",2127,347396,"117 Holton Street #5 02127"
"119","Holton","Street","7",2127,347397,"119 Holton Street #7 02127"
"121","Holton","Street","9",2127,347398,"121 Holton Street #9 02127"
"123","Holton","Street","11",2130,347399,"123 Holton Street #11 02130"
"153","Hyde Park","Avenue","B",2130,353918,"153 Hyde Park Avenue #B 02130"
"157","Hyde Park","Avenue","B",2130,353917,"157 Hyde Park Avenue #B 02130"
"169","Hyde Park","Avenue","B",2130,353915,"169 Hyde Park Avenue #B 02130"
"3","Johnson","Terrace","1",2124,259662,"3 Johnson Terrace #1 02124"
"3","Johnson","Terrace","2",2124,259663,"3 Johnson Terrace #2 02124"
"3","Johnson","Terrace","3",2124,259664,"3 Johnson Terrace #3 02124"
"3","Johnson","Terrace","4",2124,259665,"3 Johnson Terrace #4 02124"
"3","Johnson","Terrace","5",2124,259666,"3 Johnson Terrace #5 02124"
"3","Johnson","Terrace","6",2124,259667,"3 Johnson Terrace #6 02124"
"3","Johnson","Terrace","7",2124,259668,"3 Johnson Terrace #7 02124"
"3","Johnson","Terrace","8",2124,259669,"3 Johnson Terrace #8 02124"
"88","Kingston","Street","1A",2111,82030,"88 Kingston Street #1A 02111"
"88","Kingston","Street","1C",2111,82032,"88 Kingston Street #1C 02111"
"88","Kingston","Street","3B",2111,82043,"88 Kingston Street #3B 02111"
"88","Kingston","Street","3C",2111,82044,"88 Kingston Street #3C 02111"
"3","Lambert","Street","1",2119,375556,"3 Lambert Street #1 02119"
"5","Lambert","Street","1",2119,375557,"5 Lambert Street #1 02119"
"2","Lee Hill","Road","6",2131,84852,"2 Lee Hill Road #6 02131"
"70","Lincoln","Street","L-216",2111,86144,"70 Lincoln Street #L-216 02111"
"70","Lincoln","Street","L-217",2111,86145,"70 Lincoln Street #L-217 02111"
"70","Lincoln","Street","L-314",2111,86152,"70 Lincoln Street #L-314 02111"
"70","Lincoln","Street","L-319",2111,86157,"70 Lincoln Street #L-319 02111"
"70","Lincoln","Street","L-410",2111,86158,"70 Lincoln Street #L-410 02111"
"70","Lincoln","Street","L-415",2111,86163,"70 Lincoln Street #L-415 02111"
"70","Lincoln","Street","L-517",2111,86175,"70 Lincoln Street #L-517 02111"
"101","Litchfield","Street","13",2114,347390,"101 Litchfield Street #13 02114"
"103","Litchfield","Street","15",2127,347391,"103 Litchfield Street #15 02127"
"105","Litchfield","Street","17",2129,347392,"105 Litchfield Street #17 02129"
"3-Jan","Louis","Terrace","1B",2124,344307,"1-3 Louis Terrace #1B 02124"
"257","Main","Street","2",2129,394999,"257 Main Street #2 02129"
"257","Main","Street","3",2129,88482,"257 Main Street #3 02129"
"261","Main","Street","2",2129,395001,"261 Main Street #2 02129"
"261","Main","Street","3",2129,88492,"261 Main Street #3 02129"
"438","Main","Street",NA,2129,88609,"438 Main Street #NA 02129"
"440","Main","Street",NA,2129,88611,"440 Main Street #NA 02129"
"446","Main","Street",NA,2129,88620,"446 Main Street #NA 02129"
"449","Main","Street",NA,2129,88625,"449 Main Street #NA 02129"
"451","Main","Street",NA,2129,88627,"451 Main Street #NA 02129"
"456","Main","Street",NA,2129,88634,"456 Main Street #NA 02129"
"457","Main","Street",NA,2129,88635,"457 Main Street #NA 02129"
"459","Main","Street",NA,2129,88637,"459 Main Street #NA 02129"
"466","Main","Street",NA,2129,88642,"466 Main Street #NA 02129"
"470","Main","Street",NA,2129,88644,"470 Main Street #NA 02129"
"185","Massachusetts","Avenue","101",2115,365085,"185 Massachusetts Avenue #101 02115"
"185","Massachusetts","Avenue","102",2115,365086,"185 Massachusetts Avenue #102 02115"
"424","Massachusetts","Avenue","101",2134,92092,"424 Massachusetts Avenue #101 02134"
"424","Massachusetts","Avenue","301",2118,92096,"424 Massachusetts Avenue #301 02118"
"691","Massachusetts","Avenue","104",2116,353818,"691 Massachusetts Avenue #104 02116"
"691","Massachusetts","Avenue","105",2116,353819,"691 Massachusetts Avenue #105 02116"
"320","Maverick","Street","205",2128,93054,"320 Maverick Street #205 02128"
"320","Maverick","Street","208",2128,93054,"320 Maverick Street #208 02128"
"320","Maverick","Street","302",2128,93054,"320 Maverick Street #302 02128"
"320","Maverick","Street","306",2128,93054,"320 Maverick Street #306 02128"
"300","Medford","Street","1",2129,340578,"300 Medford Street #1 02129"
"300","Medford","Street","2",2129,340579,"300 Medford Street #2 02129"
"300","Medford","Street","3",2129,340580,"300 Medford Street #3 02129"
"250","Meridian","Street","210",2128,421037,"250 Meridian Street #210 02128"
"250","Meridian","Street","212",2128,421039,"250 Meridian Street #212 02128"
"250","Meridian","Street","301",2128,421042,"250 Meridian Street #301 02128"
"250","Meridian","Street","309",2128,421050,"250 Meridian Street #309 02128"
"250","Meridian","Street","312",2128,421053,"250 Meridian Street #312 02128"
"250","Meridian","Street","409",2128,421064,"250 Meridian Street #409 02128"
"250","Meridian","Street","414",2128,421069,"250 Meridian Street #414 02128"
"250","Meridian","Street","512",2128,421081,"250 Meridian Street #512 02128"
"16","Miner","Street","113",2114,345491,"16 Miner Street #113 02114"
"16","Miner","Street","202",2127,345494,"16 Miner Street #202 02127"
"16","Miner","Street","209",2130,345501,"16 Miner Street #209 02130"
"16","Miner","Street","305",2127,345507,"16 Miner Street #305 02127"
"16","Miner","Street","407",2215,345519,"16 Miner Street #407 02215"
"120","Mountfort","Street","101",2215,99130,"120 Mountfort Street #101 02215"
"120","Mountfort","Street","106",2215,99134,"120 Mountfort Street #106 02215"
"120","Mountfort","Street","304",2215,99146,"120 Mountfort Street #304 02215"
"120","Mountfort","Street","405",2215,99154,"120 Mountfort Street #405 02215"
"1","Nassau","Street","1002",2111,100251,"1 Nassau Street #1002 02111"
"1","Nassau","Street","1003",2111,100252,"1 Nassau Street #1003 02111"
"1","Nassau","Street","1006",2111,100255,"1 Nassau Street #1006 02111"
"1","Nassau","Street","1007",2111,100256,"1 Nassau Street #1007 02111"
"1","Nassau","Street","1008",2111,100257,"1 Nassau Street #1008 02111"
"1","Nassau","Street","1102",2111,100260,"1 Nassau Street #1102 02111"
"1","Nassau","Street","1103",2111,100261,"1 Nassau Street #1103 02111"
"1","Nassau","Street","1106",2111,100264,"1 Nassau Street #1106 02111"
"1","Nassau","Street","1107",2111,100265,"1 Nassau Street #1107 02111"
"1","Nassau","Street","1108",2111,100266,"1 Nassau Street #1108 02111"
"1","Nassau","Street","1202",2111,100269,"1 Nassau Street #1202 02111"
"1","Nassau","Street","1204",2111,100271,"1 Nassau Street #1204 02111"
"1","Nassau","Street","1205",2111,100272,"1 Nassau Street #1205 02111"
"1","Nassau","Street","1207",2111,100274,"1 Nassau Street #1207 02111"
"1","Nassau","Street","1208",2111,100275,"1 Nassau Street #1208 02111"
"1","Nassau","Street","1303",2111,100279,"1 Nassau Street #1303 02111"
"1","Nassau","Street","1306",2111,100282,"1 Nassau Street #1306 02111"
"1","Nassau","Street","1307",2111,100283,"1 Nassau Street #1307 02111"
"1","Nassau","Street","1308",2111,100284,"1 Nassau Street #1308 02111"
"1","Nassau","Street","1403",2111,100288,"1 Nassau Street #1403 02111"
"1","Nassau","Street","1404",2111,100289,"1 Nassau Street #1404 02111"
"1","Nassau","Street","1406",2111,100291,"1 Nassau Street #1406 02111"
"1","Nassau","Street","1503",2111,100297,"1 Nassau Street #1503 02111"
"1","Nassau","Street","1505",2111,100299,"1 Nassau Street #1505 02111"
"1","Nassau","Street","1506",2111,100300,"1 Nassau Street #1506 02111"
"1","Nassau","Street","1507",2111,100301,"1 Nassau Street #1507 02111"
"1","Nassau","Street","1602",2111,100305,"1 Nassau Street #1602 02111"
"1","Nassau","Street","1604",2111,100307,"1 Nassau Street #1604 02111"
"1","Nassau","Street","1606",2111,100309,"1 Nassau Street #1606 02111"
"1","Nassau","Street","1608",2111,100311,"1 Nassau Street #1608 02111"
"1","Nassau","Street","1708",2111,100320,"1 Nassau Street #1708 02111"
"1","Nassau","Street","1908",2111,100338,"1 Nassau Street #1908 02111"
"360","Newbury","Street","402",2115,101582,"360 Newbury Street #402 02115"
"360","Newbury","Street","406",2115,101586,"360 Newbury Street #406 02115"
"360","Newbury","Street","506",2115,101597,"360 Newbury Street #506 02115"
"360","Newbury","Street","606",2115,101608,"360 Newbury Street #606 02115"
"360","Newbury","Street","706",2115,101619,"360 Newbury Street #706 02115"
"65","Nightingale","Street","1A",2124,102687,"65 Nightingale Street #1A 02124"
"65","Nightingale","Street","2A",2124,102688,"65 Nightingale Street #2A 02124"
"65","Nightingale","Street","3A",2124,102689,"65 Nightingale Street #3A 02124"
"69","Nightingale","Street","1",2124,380467,"69 Nightingale Street #1 02124"
"69","Nightingale","Street","2",2124,380468,"69 Nightingale Street #2 02124"
"69","Nightingale","Street","3",2124,380469,"69 Nightingale Street #3 02124"
"69","Nightingale","Street","4",2124,380470,"69 Nightingale Street #4 02124"
"255","Northampton","Street","101",2118,158628,"255 Northampton Street #101 02118"
"255","Northampton","Street","204",2118,160396,"255 Northampton Street #204 02118"
"257","Northampton","Street","102",2127,369506,"257 Northampton Street #102 02127"
"257","Northampton","Street","103",2114,369506,"257 Northampton Street #103 02114"
"257","Northampton","Street","104",2130,369506,"257 Northampton Street #104 02130"
"257","Northampton","Street","105",2132,369506,"257 Northampton Street #105 02132"
"257","Northampton","Street","206",2118,369506,"257 Northampton Street #206 02118"
"257","Northampton","Street","207",2118,369506,"257 Northampton Street #207 02118"
"257","Northampton","Street","208",2118,369506,"257 Northampton Street #208 02118"
"70-72","Northampton","Street","102",2118,103742,"70-72 Northampton Street #102 02118"
"70-72","Northampton","Street","103",2118,103743,"70-72 Northampton Street #103 02118"
"70-72","Northampton","Street","104",2118,103744,"70-72 Northampton Street #104 02118"
"70-72","Northampton","Street","203",2118,103749,"70-72 Northampton Street #203 02118"
"70-72","Northampton","Street","204",2118,103750,"70-72 Northampton Street #204 02118"
"70-72","Northampton","Street","303",2118,103756,"70-72 Northampton Street #303 02118"
"60","Norwell","Street","1",2121,104138,"60 Norwell Street #1 02121"
"70","Norwell","Street","1",2121,285516,"70 Norwell Street #1 02121"
"70","Norwell","Street","2",2121,285517,"70 Norwell Street #2 02121"
"70","Norwell","Street","3",2121,285518,"70 Norwell Street #3 02121"
"70","Norwell","Street","4",2121,285519,"70 Norwell Street #4 02121"
"232","Old Colony","Avenue","202",2127,105081,"232 Old Colony Avenue #202 02127"
"232","Old Colony","Avenue","303",2127,105081,"232 Old Colony Avenue #303 02127"
"232","Old Colony","Avenue","503",2127,105081,"232 Old Colony Avenue #503 02127"
"275","Old Colony","Avenue","4",2127,421231,"275 Old Colony Avenue #4 02127"
"275","Old Colony","Avenue","9",2127,421236,"275 Old Colony Avenue #9 02127"
"30","Polk","Street","102",2129,111432,"30 Polk Street #102 02129"
"30","Polk","Street","105",2129,111432,"30 Polk Street #105 02129"
"30","Polk","Street","201",2129,111432,"30 Polk Street #201 02129"
"30","Polk","Street","204",2129,111432,"30 Polk Street #204 02129"
"26","Pontiac","Street","A",2120,172343,"26 Pontiac Street #A 02120"
"26","Pontiac","Street","B",2120,172343,"26 Pontiac Street #B 02120"
"26","Pontiac","Street","C",2120,172343,"26 Pontiac Street #C 02120"
"156","Porter","Street","102",2128,112047,"156 Porter Street #102 02128"
"156","Porter","Street","103",2128,112048,"156 Porter Street #103 02128"
"156","Porter","Street","106",2128,112051,"156 Porter Street #106 02128"
"156","Porter","Street","110",2128,112055,"156 Porter Street #110 02128"
"156","Porter","Street","114",1212,112059,"156 Porter Street #114 01212"
"156","Porter","Street","122",2128,112067,"156 Porter Street #122 02128"
"156","Porter","Street","123",2128,112068,"156 Porter Street #123 02128"
"156","Porter","Street","124",2128,112069,"156 Porter Street #124 02128"
"156","Porter","Street","128",2128,112071,"156 Porter Street #128 02128"
"156","Porter","Street","133",2128,112076,"156 Porter Street #133 02128"
"156","Porter","Street","136",2128,112079,"156 Porter Street #136 02128"
"156","Porter","Street","144",2128,112087,"156 Porter Street #144 02128"
"156","Porter","Street","152",2128,112095,"156 Porter Street #152 02128"
"156","Porter","Street","156",2128,112099,"156 Porter Street #156 02128"
"156","Porter","Street","204",2128,112104,"156 Porter Street #204 02128"
"156","Porter","Street","205",2128,112105,"156 Porter Street #205 02128"
"156","Porter","Street","208",2128,112108,"156 Porter Street #208 02128"
"156","Porter","Street","216",2128,112116,"156 Porter Street #216 02128"
"156","Porter","Street","220",2128,112120,"156 Porter Street #220 02128"
"156","Porter","Street","226",2128,112126,"156 Porter Street #226 02128"
"156","Porter","Street","227",2128,112127,"156 Porter Street #227 02128"
"156","Porter","Street","233",2128,112133,"156 Porter Street #233 02128"
"156","Porter","Street","234",2128,112134,"156 Porter Street #234 02128"
"156","Porter","Street","240",2128,112140,"156 Porter Street #240 02128"
"156","Porter","Street","241",2128,112141,"156 Porter Street #241 02128"
"156","Porter","Street","254",2128,112154,"156 Porter Street #254 02128"
"156","Porter","Street","256",2128,112156,"156 Porter Street #256 02128"
"156","Porter","Street","312",2128,112169,"156 Porter Street #312 02128"
"156","Porter","Street","322",2128,112179,"156 Porter Street #322 02128"
"156","Porter","Street","327",2128,112184,"156 Porter Street #327 02128"
"156","Porter","Street","349",2128,112206,"156 Porter Street #349 02128"
"156","Porter","Street","354",2128,112211,"156 Porter Street #354 02128"
"121","Portland","Street","201",2114,424378,"121 Portland Street #201 02114"
"121","Portland","Street","301",2114,424387,"121 Portland Street #301 02114"
"121","Portland","Street","308",2114,424394,"121 Portland Street #308 02114"
"121","Portland","Street","402",2114,424397,"121 Portland Street #402 02114"
"121","Portland","Street","410",2114,424405,"121 Portland Street #410 02114"
"121","Portland","Street","510",2114,424415,"121 Portland Street #510 02114"
"121","Portland","Street","610",2114,424426,"121 Portland Street #610 02114"
"44","Prince","Street","102",2113,112894,"44 Prince Street #102 02113"
"44","Prince","Street","108",2113,112898,"44 Prince Street #108 02113"
"44","Prince","Street","208",2113,112908,"44 Prince Street #208 02113"
"44","Prince","Street","209",2109,112909,"44 Prince Street #209 02109"
"44","Prince","Street","212",2113,112912,"44 Prince Street #212 02113"
"44","Prince","Street","312",2113,112923,"44 Prince Street #312 02113"
"29","Prospect","Street",NA,2129,113466,"29 Prospect Street #NA 02129"
"64A","Regent","Street","64-2",2119,374329,"64A Regent Street #64-2 02119"
"66B","Regent","Street","66-1",2119,374330,"66B Regent Street #66-1 02119"
"20","Rockland","Street","1",2119,117681,"20 Rockland Street #1 02119"
"20","Rockland","Street","2",2119,117682,"20 Rockland Street #2 02119"
"20","Rockland","Street","3",2119,117683,"20 Rockland Street #3 02119"
"8","Rowe","Court","8",2131,118974,"8 Rowe Court #8 02131"
"10","Rowe","Court","10",2131,118969,"10 Rowe Court #10 02131"
"463","Rutherford","Avenue","201",2129,352179,"463 Rutherford Avenue #201 02129"
"463","Rutherford","Avenue","203",2129,352179,"463 Rutherford Avenue #203 02129"
"1","Saint George","Street","1A",2118,121023,"1 Saint George Street #1A 02118"
"1","Saint George","Street","1B",2118,121024,"1 Saint George Street #1B 02118"
"1","Saint George","Street","2A",2118,121026,"1 Saint George Street #2A 02118"
"1","Saint George","Street","2B",2118,121027,"1 Saint George Street #2B 02118"
"1","Saint George","Street","3A",2118,121029,"1 Saint George Street #3A 02118"
"1","Saint George","Street","4C",2118,121034,"1 Saint George Street #4C 02118"
"1","Saint George","Street","5A",2118,121035,"1 Saint George Street #5A 02118"
"10","Saint George","Street","101",2118,157530,"10 Saint George Street #101 02118"
"10","Saint George","Street","105",2118,157530,"10 Saint George Street #105 02118"
"10","Saint George","Street","201",2118,157530,"10 Saint George Street #201 02118"
"10","Saint George","Street","305",2118,157530,"10 Saint George Street #305 02118"
"11","Saint George","Street","11A",2118,121039,"11 Saint George Street #11A 02118"
"11","Saint George","Street","11B",2118,121040,"11 Saint George Street #11B 02118"
"11","Saint George","Street","11C",2118,121041,"11 Saint George Street #11C 02118"
"11","Saint George","Street","12A",2118,121042,"11 Saint George Street #12A 02118"
"11","Saint George","Street","12C",2118,121044,"11 Saint George Street #12C 02118"
"11","Saint George","Street","13B",2118,121046,"11 Saint George Street #13B 02118"
"11","Saint George","Street","14B",2118,121049,"11 Saint George Street #14B 02118"
"910","Saratoga","Street","3",2128,346698,"910 Saratoga Street #3 02128"
"910","Saratoga","Street","12",2127,346707,"910 Saratoga Street #12 02127"
"910","Saratoga","Street","17",2128,346712,"910 Saratoga Street #17 02128"
"219","Shawmut","Avenue","219-1A",2118,126035,"219 Shawmut Avenue #219-1A 02118"
"219","Shawmut","Avenue","219-1B",2118,126036,"219 Shawmut Avenue #219-1B 02118"
"225","Shawmut","Avenue","225-1B",2118,126041,"225 Shawmut Avenue #225-1B 02118"
"478","Shawmut","Avenue","1",2118,126365,"478 Shawmut Avenue #1 02118"
"478","Shawmut","Avenue","3",2118,126367,"478 Shawmut Avenue #3 02118"
"478","Shawmut","Avenue","4",2118,126368,"478 Shawmut Avenue #4 02118"
"758","Shawmut","Avenue","1",2119,126467,"758 Shawmut Avenue #1 02119"
"758","Shawmut","Avenue","2",2119,126468,"758 Shawmut Avenue #2 02119"
"758","Shawmut","Avenue","3",2119,126469,"758 Shawmut Avenue #3 02119"
"760","Shawmut","Avenue","4",2119,126471,"760 Shawmut Avenue #4 02119"
"762","Shawmut","Avenue","5",2119,126472,"762 Shawmut Avenue #5 02119"
"764","Shawmut","Avenue","6",2119,126473,"764 Shawmut Avenue #6 02119"
"766","Shawmut","Avenue","7",2119,126474,"766 Shawmut Avenue #7 02119"
"768","Shawmut","Avenue","8",2119,126475,"768 Shawmut Avenue #8 02119"
"770","Shawmut","Avenue","9",2119,126476,"770 Shawmut Avenue #9 02119"
"772","Shawmut","Avenue","10",2119,126477,"772 Shawmut Avenue #10 02119"
"774","Shawmut","Avenue","11",2119,126478,"774 Shawmut Avenue #11 02119"
"776","Shawmut","Avenue","12",2127,126479,"776 Shawmut Avenue #12 02127"
"778","Shawmut","Avenue","13",2127,126480,"778 Shawmut Avenue #13 02127"
"780","Shawmut","Avenue","14",2114,126481,"780 Shawmut Avenue #14 02114"
"782","Shawmut","Avenue","15",2135,126482,"782 Shawmut Avenue #15 02135"
"18","Sigourney","Street","G",2130,127350,"18 Sigourney Street #G 02130"
"20","Sigourney","Street","D",2130,127353,"20 Sigourney Street #D 02130"
"210","South","Street","1-Feb",2111,128548,"210 South Street #2-1 02111"
"210","South","Street","3-Mar",2111,128555,"210 South Street #3-3 02111"
"210","South","Street","3-Jul",2111,128575,"210 South Street #7-3 02111"
"210","South","Street","1-Aug",2111,128578,"210 South Street #8-1 02111"
"210","South","Street","5-Sep",2111,128588,"210 South Street #9-5 02111"
"26","Stillman","Street","1-Jan",2113,130594,"26 Stillman Street #1-1 02113"
"26","Stillman","Street","4-Feb",2113,130601,"26 Stillman Street #2-4 02113"
"26","Stillman","Street","5-Feb",2113,130602,"26 Stillman Street #2-5 02113"
"330","Summit","Avenue","102",2135,132179,"330 Summit Avenue #102 02135"
"330","Summit","Avenue","105",2135,132182,"330 Summit Avenue #105 02135"
"113","Sumner","Street","11",2128,132291,"113 Sumner Street #11 02128"
"113","Sumner","Street","12",2128,132292,"113 Sumner Street #12 02128"
"113","Sumner","Street","13",2128,132293,"113 Sumner Street #13 02128"
"113","Sumner","Street","21",2128,132294,"113 Sumner Street #21 02128"
"113","Sumner","Street","22",2128,132295,"113 Sumner Street #22 02128"
"113","Sumner","Street","23",2128,132296,"113 Sumner Street #23 02128"
"113","Sumner","Street","24",2128,132297,"113 Sumner Street #24 02128"
"113","Sumner","Street","25",2128,132298,"113 Sumner Street #25 02128"
"113","Sumner","Street","31",2128,132299,"113 Sumner Street #31 02128"
"113","Sumner","Street","32",2128,132300,"113 Sumner Street #32 02128"
"113","Sumner","Street","33",2128,132301,"113 Sumner Street #33 02128"
"113","Sumner","Street","34",2128,132302,"113 Sumner Street #34 02128"
"113","Sumner","Street","35",2128,132303,"113 Sumner Street #35 02128"
"113","Sumner","Street","41",2128,132304,"113 Sumner Street #41 02128"
"113","Sumner","Street","42",2128,132305,"113 Sumner Street #42 02128"
"113","Sumner","Street","43",2128,132306,"113 Sumner Street #43 02128"
"113","Sumner","Street","45",2128,132308,"113 Sumner Street #45 02128"
"113","Sumner","Street","51",2128,132309,"113 Sumner Street #51 02128"
"113","Sumner","Street","52",2128,132310,"113 Sumner Street #52 02128"
"113","Sumner","Street","53",2128,132311,"113 Sumner Street #53 02128"
"113","Sumner","Street","54",2128,132312,"113 Sumner Street #54 02128"
"113","Sumner","Street","55",2128,132313,"113 Sumner Street #55 02128"
"113","Sumner","Street","61",2128,132314,"113 Sumner Street #61 02128"
"113","Sumner","Street","62",2128,132315,"113 Sumner Street #62 02128"
"113","Sumner","Street","63",2128,132316,"113 Sumner Street #63 02128"
"113","Sumner","Street","64",2128,132317,"113 Sumner Street #64 02128"
"113","Sumner","Street","65",2128,132318,"113 Sumner Street #65 02128"
"113","Sumner","Street","71",2128,132319,"113 Sumner Street #71 02128"
"113","Sumner","Street","72",2128,132320,"113 Sumner Street #72 02128"
"180","Telford","Street","207",2135,419676,"180 Telford Street #207 02135"
"180","Telford","Street","208",2135,419676,"180 Telford Street #208 02135"
"180","Telford","Street","301",2135,419676,"180 Telford Street #301 02135"
"180","Telford","Street","314",2135,419676,"180 Telford Street #314 02135"
"180","Telford","Street","401",2135,419676,"180 Telford Street #401 02135"
"180","Telford","Street","414",2135,419676,"180 Telford Street #414 02135"
"103","Thirteenth","Street","101",2129,170341,"103 Thirteenth Street #101 02129"
"103","Thirteenth","Street","201",2129,170341,"103 Thirteenth Street #201 02129"
"103","Thirteenth","Street","301",2129,170341,"103 Thirteenth Street #301 02129"
"103","Thirteenth","Street","302",2129,170341,"103 Thirteenth Street #302 02129"
"103","Thirteenth","Street","401",2129,170341,"103 Thirteenth Street #401 02129"
"103","Thirteenth","Street","402",2129,170341,"103 Thirteenth Street #402 02129"
"106","Thirteenth","Street","101",2129,394438,"106 Thirteenth Street #101 02129"
"106","Thirteenth","Street","102",2129,394439,"106 Thirteenth Street #102 02129"
"106","Thirteenth","Street","103",2129,394440,"106 Thirteenth Street #103 02129"
"106","Thirteenth","Street","104",2129,394441,"106 Thirteenth Street #104 02129"
"106","Thirteenth","Street","217",2129,394442,"106 Thirteenth Street #217 02129"
"106","Thirteenth","Street","220",2129,135512,"106 Thirteenth Street #220 02129"
"106","Thirteenth","Street","222",2129,135514,"106 Thirteenth Street #222 02129"
"106","Thirteenth","Street","233",2129,135525,"106 Thirteenth Street #233 02129"
"106","Thirteenth","Street","235",2129,135527,"106 Thirteenth Street #235 02129"
"79A","Thirteenth","Street",NA,2129,135568,"79A Thirteenth Street #NA 02129"
"87A","Thirteenth","Street",NA,2129,135576,"87A Thirteenth Street #NA 02129"
"40","Traveler","Street","204",2118,419369,"40 Traveler Street #204 02118"
"40","Traveler","Street","304",2135,419369,"40 Traveler Street #304 02135"
"30-36","Traveler","Street","201",2118,344270,"30-36 Traveler Street #201 02118"
"30-36","Traveler","Street","205",2118,344270,"30-36 Traveler Street #205 02118"
"30-36","Traveler","Street","208",2118,344270,"30-36 Traveler Street #208 02118"
"30-36","Traveler","Street","213",2118,344270,"30-36 Traveler Street #213 02118"
"30-36","Traveler","Street","301",2115,344270,"30-36 Traveler Street #301 02115"
"30-36","Traveler","Street","308",2118,344270,"30-36 Traveler Street #308 02118"
"30-36","Traveler","Street","401",2118,344270,"30-36 Traveler Street #401 02118"
"30-36","Traveler","Street","507",2135,344270,"30-36 Traveler Street #507 02135"
"57","Tremont","Street",NA,2129,136740,"57 Tremont Street #NA 02129"
"69","Tremont","Street",NA,2129,136749,"69 Tremont Street #NA 02129"
"99","Tremont","Street","103",2135,419368,"99 Tremont Street #103 02135"
"99","Tremont","Street","110",2135,419368,"99 Tremont Street #110 02135"
"99","Tremont","Street","201",2135,419368,"99 Tremont Street #201 02135"
"99","Tremont","Street","216",2135,419368,"99 Tremont Street #216 02135"
"99","Tremont","Street","306",2135,419368,"99 Tremont Street #306 02135"
"99","Tremont","Street","315",2135,419368,"99 Tremont Street #315 02135"
"99","Tremont","Street","411",2135,419368,"99 Tremont Street #411 02135"
"99","Tremont","Street","419",2135,419368,"99 Tremont Street #419 02135"
"980","Tremont","Street","4",2120,138061,"980 Tremont Street #4 02120"
"30","Union Park","Street","206",2118,158948,"30 Union Park Street #206 02118"
"30","Union Park","Street","406",2118,160259,"30 Union Park Street #406 02118"
"990","VFW","Parkway","103",2132,348028,"990 VFW Parkway #103 02132"
"990","VFW","Parkway","204",2132,348028,"990 VFW Parkway #204 02132"
"990","VFW","Parkway","302",2132,348028,"990 VFW Parkway #302 02132"
"1100","VFW","Parkway","107",2132,140211,"1100 VFW Parkway #107 02132"
"1100","VFW","Parkway","207",2132,140211,"1100 VFW Parkway #207 02132"
"27","Wareham","Street","102",2118,142747,"27 Wareham Street #102 02118"
"27","Wareham","Street","206",2118,142758,"27 Wareham Street #206 02118"
"27","Wareham","Street","302",2118,142761,"27 Wareham Street #302 02118"
"90","Wareham","Street","A-205",2118,170930,"90 Wareham Street #A-205 02118"
"90","Wareham","Street","A-207",2118,170930,"90 Wareham Street #A-207 02118"
"90","Wareham","Street","A-211",2118,170930,"90 Wareham Street #A-211 02118"
"90","Wareham","Street","A-215",2118,170930,"90 Wareham Street #A-215 02118"
"90","Wareham","Street","A-304",2118,170930,"90 Wareham Street #A-304 02118"
"90","Wareham","Street","A-310",2118,170930,"90 Wareham Street #A-310 02118"
"90","Wareham","Street","A-404",2118,170930,"90 Wareham Street #A-404 02118"
"7","Warren","Avenue","2",2116,159371,"7 Warren Avenue #2 02116"
"7","Warren","Avenue","7",2116,161260,"7 Warren Avenue #7 02116"
"72","Warren","Avenue","101",2116,143051,"72 Warren Avenue #101 02116"
"72","Warren","Avenue","201",2116,143052,"72 Warren Avenue #201 02116"
"78","Warren","Avenue","101",2116,143067,"78 Warren Avenue #101 02116"
"78","Warren","Avenue","201",2116,143068,"78 Warren Avenue #201 02116"
"78","Warren","Avenue","302",2116,143071,"78 Warren Avenue #302 02116"
"80","Warren","Avenue","80",2116,143073,"80 Warren Avenue #80 02116"
"1200","Washington","Street","112",2118,371030,"1200 Washington Street #112 02118"
"1200","Washington","Street","115",2118,371033,"1200 Washington Street #115 02118"
"1200","Washington","Street","118",2118,371035,"1200 Washington Street #118 02118"
"1200","Washington","Street","120",2118,371036,"1200 Washington Street #120 02118"
"1200","Washington","Street","209",2118,371047,"1200 Washington Street #209 02118"
"1200","Washington","Street","210",2118,371048,"1200 Washington Street #210 02118"
"1200","Washington","Street","211",2118,371049,"1200 Washington Street #211 02118"
"1200","Washington","Street","212",2118,371050,"1200 Washington Street #212 02118"
"1200","Washington","Street","214",2118,371052,"1200 Washington Street #214 02118"
"1200","Washington","Street","217",2118,371055,"1200 Washington Street #217 02118"
"1200","Washington","Street","221",2118,371066,"1200 Washington Street #221 02118"
"1200","Washington","Street","222",2118,371067,"1200 Washington Street #222 02118"
"1200","Washington","Street","308",2118,371077,"1200 Washington Street #308 02118"
"1200","Washington","Street","309",2118,371078,"1200 Washington Street #309 02118"
"1200","Washington","Street","310",2118,371079,"1200 Washington Street #310 02118"
"1200","Washington","Street","311",2118,371080,"1200 Washington Street #311 02118"
"1200","Washington","Street","313",2118,371082,"1200 Washington Street #313 02118"
"1200","Washington","Street","314",2118,371083,"1200 Washington Street #314 02118"
"1200","Washington","Street","316",2118,371085,"1200 Washington Street #316 02118"
"1200","Washington","Street","317",2118,371086,"1200 Washington Street #317 02118"
"1313","Washington","Street","208",2118,371249,"1313 Washington Street #208 02118"
"1313","Washington","Street","209",2118,371250,"1313 Washington Street #209 02118"
"1313","Washington","Street","213",2118,371254,"1313 Washington Street #213 02118"
"1313","Washington","Street","214",2118,371255,"1313 Washington Street #214 02118"
"1313","Washington","Street","216",2118,371257,"1313 Washington Street #216 02118"
"1313","Washington","Street","218",2118,371168,"1313 Washington Street #218 02118"
"1313","Washington","Street","307",2118,371180,"1313 Washington Street #307 02118"
"1313","Washington","Street","308",2118,371181,"1313 Washington Street #308 02118"
"1313","Washington","Street","313",2118,371186,"1313 Washington Street #313 02118"
"1313","Washington","Street","316",2118,371277,"1313 Washington Street #316 02118"
"1313","Washington","Street","318",2118,371279,"1313 Washington Street #318 02118"
"1313","Washington","Street","331",2118,371273,"1313 Washington Street #331 02118"
"1313","Washington","Street","406",2118,371264,"1313 Washington Street #406 02118"
"1313","Washington","Street","407",2118,371265,"1313 Washington Street #407 02118"
"1313","Washington","Street","412",2118,371309,"1313 Washington Street #412 02118"
"1313","Washington","Street","415",2118,371312,"1313 Washington Street #415 02118"
"1313","Washington","Street","417",2118,371314,"1313 Washington Street #417 02118"
"1313","Washington","Street","430",2118,371304,"1313 Washington Street #430 02118"
"1313","Washington","Street","603",2118,371346,"1313 Washington Street #603 02118"
"1313","Washington","Street","604",2118,371347,"1313 Washington Street #604 02118"
"1597","Washington","Street","404",2118,144264,"1597 Washington Street #404 02118"
"1597","Washington","Street","406",2118,144266,"1597 Washington Street #406 02118"
"1597","Washington","Street","407",2118,144267,"1597 Washington Street #407 02118"
"1597","Washington","Street","504",2118,144277,"1597 Washington Street #504 02118"
"1597","Washington","Street","506",2118,144279,"1597 Washington Street #506 02118"
"1597","Washington","Street","507",2118,144280,"1597 Washington Street #507 02118"
"1597","Washington","Street","607",2118,144293,"1597 Washington Street #607 02118"
"1721","Washington","Street","110",2118,144367,"1721 Washington Street #110 02118"
"1721","Washington","Street","303",2118,144381,"1721 Washington Street #303 02118"
"1723","Washington","Street","403",2118,370575,"1723 Washington Street #403 02118"
"3193","Washington","Street","203",2130,144654,"3193 Washington Street #203 02130"
"3193","Washington","Street","208",2130,144654,"3193 Washington Street #208 02130"
"3193","Washington","Street","301",2130,144654,"3193 Washington Street #301 02130"
"3193","Washington","Street","304",2130,144654,"3193 Washington Street #304 02130"
"3193","Washington","Street","307",2130,144654,"3193 Washington Street #307 02130"
"3193","Washington","Street","403",2130,144654,"3193 Washington Street #403 02130"
"3193","Washington","Street","408",2130,144654,"3193 Washington Street #408 02130"
"4040","Washington","Street","4",2131,145074,"4040 Washington Street #4 02131"
"4044","Washington","Street","6",2131,145083,"4044 Washington Street #6 02131"
"4048","Washington","Street","3",2131,145087,"4048 Washington Street #3 02131"
"5170","Washington","Street","205",2132,145645,"5170 Washington Street #205 02132"
"1180-1200","Washington","Street","312",2118,143952,"1180-1200 Washington Street #312 02118"
"45","West","Broadway","101",2128,21512,"45 West Broadway #101 02128"
"45","West","Broadway","105",2134,21516,"45 West Broadway #105 02134"
"45","West","Broadway","106",2131,21517,"45 West Broadway #106 02131"
"45","West","Broadway","107",2127,21518,"45 West Broadway #107 02127"
"45","West","Broadway","110",2118,21521,"45 West Broadway #110 02118"
"45","West","Broadway","204",2131,21527,"45 West Broadway #204 02131"
"45","West","Broadway","205",2131,21528,"45 West Broadway #205 02131"
"150","West","Broadway","4",2127,171457,"150 West Broadway #4 02127"
"150","West","Broadway","7",2127,171457,"150 West Broadway #7 02127"
"150","West","Broadway","15",2127,171457,"150 West Broadway #15 02127"
"170","West","Broadway","202",2127,21394,"170 West Broadway #202 02127"
"170","West","Broadway","208",2127,21394,"170 West Broadway #208 02127"
"170","West","Broadway","304",2127,21394,"170 West Broadway #304 02127"
"170","West","Broadway","309",2127,21394,"170 West Broadway #309 02127"
"143","West Brookline","Street","201",2118,22232,"143 West Brookline Street #201 02118"
"143","West Brookline","Street","205",2118,22236,"143 West Brookline Street #205 02118"
"143","West Brookline","Street","206",2118,22237,"143 West Brookline Street #206 02118"
"143","West Brookline","Street","207",2118,22238,"143 West Brookline Street #207 02118"
"143","West Brookline","Street","208",2118,22239,"143 West Brookline Street #208 02118"
"143","West Brookline","Street","304",2118,22243,"143 West Brookline Street #304 02118"
"143","West Brookline","Street","306",2118,22245,"143 West Brookline Street #306 02118"
"143","West Brookline","Street","401",2118,22247,"143 West Brookline Street #401 02118"
"143","West Brookline","Street","402",2118,22248,"143 West Brookline Street #402 02118"
"143","West Brookline","Street","403",2118,22249,"143 West Brookline Street #403 02118"
"143","West Brookline","Street","405",2118,22251,"143 West Brookline Street #405 02118"
"143","West Brookline","Street","406",2118,22252,"143 West Brookline Street #406 02118"
"143","West Brookline","Street","407",2118,22253,"143 West Brookline Street #407 02118"
"143","West Brookline","Street","503",2118,22256,"143 West Brookline Street #503 02118"
"143","West Brookline","Street","504",2118,22257,"143 West Brookline Street #504 02118"
"28","West Cottage","Street","1",2125,43679,"28 West Cottage Street #1 02125"
"28","West Cottage","Street","2",2125,43680,"28 West Cottage Street #2 02125"
"28","West Cottage","Street","3",2125,43681,"28 West Cottage Street #3 02125"
"28","West Cottage","Street","4",2125,43682,"28 West Cottage Street #4 02125"
"396","West First","Street",NA,2127,421742,"396 West First Street #NA 02127"
"401","West First","Street","103",2127,171573,"401 West First Street #103 02127"
"403","West First","Street","103",2127,421727,"403 West First Street #103 02127"
"404","West First","Street","11",2210,58481,"404 West First Street #11 02210"
"404","West First","Street","12",2127,58462,"404 West First Street #12 02127"
"404","West First","Street","13",2127,58463,"404 West First Street #13 02127"
"404","West First","Street","14",2127,58464,"404 West First Street #14 02127"
"404","West First","Street","15",2210,58465,"404 West First Street #15 02210"
"404","West First","Street","17",2127,58466,"404 West First Street #17 02127"
"404","West First","Street","21",2124,58467,"404 West First Street #21 02124"
"404","West First","Street","22",2127,58468,"404 West First Street #22 02127"
"404","West First","Street","23",2210,58469,"404 West First Street #23 02210"
"404","West First","Street","24",2127,58470,"404 West First Street #24 02127"
"404","West First","Street","25",2127,58471,"404 West First Street #25 02127"
"404","West First","Street","26",2127,58472,"404 West First Street #26 02127"
"404","West First","Street","27",2127,58473,"404 West First Street #27 02127"
"404","West First","Street","31",2127,58474,"404 West First Street #31 02127"
"404","West First","Street","33",2127,58476,"404 West First Street #33 02127"
"404","West First","Street","34",2127,58477,"404 West First Street #34 02127"
"404","West First","Street","35",2127,58478,"404 West First Street #35 02127"
"404","West First","Street","36",2127,58479,"404 West First Street #36 02127"
"404","West First","Street","37",2127,58480,"404 West First Street #37 02127"
"404","West First","Street","41",2127,58461,"404 West First Street #41 02127"
"404","West First","Street","42",2127,58482,"404 West First Street #42 02127"
"404","West First","Street","43",2127,58483,"404 West First Street #43 02127"
"404","West First","Street","44",2127,58484,"404 West First Street #44 02127"
"404","West First","Street","45",2127,58485,"404 West First Street #45 02127"
"404","West First","Street","46",2127,58486,"404 West First Street #46 02127"
"407","West First","Street","103",2127,421728,"407 West First Street #103 02127"
"407","West First","Street","201",2127,421728,"407 West First Street #201 02127"
"407","West First","Street","303",2127,421728,"407 West First Street #303 02127"
"141","West Second","Street","103",2127,348582,"141 West Second Street #103 02127"
"321","West Second","Street","4",2127,159594,"321 West Second Street #4 02127"
"323","West Second","Street","1",2127,159209,"323 West Second Street #1 02127"
"335","West Second","Street","11",2127,124688,"335 West Second Street #11 02127"
"335","West Second","Street","24",2127,124701,"335 West Second Street #24 02127"
"120","West Seventh","Street","205",2135,125616,"120 West Seventh Street #205 02135"
"2","West Sixth","Street","101",2127,422230,"2 West Sixth Street #101 02127"
"2","West Sixth","Street","103",2127,422230,"2 West Sixth Street #103 02127"
"2","West Sixth","Street","204",2127,422230,"2 West Sixth Street #204 02127"
"45","West Third","Street","207",2127,434966,"45 West Third Street #207 02127"
"45","West Third","Street","210",2127,434969,"45 West Third Street #210 02127"
"45","West Third","Street","211",2127,434970,"45 West Third Street #211 02127"
"45","West Third","Street","216",2127,434975,"45 West Third Street #216 02127"
"45","West Third","Street","217",2127,434976,"45 West Third Street #217 02127"
"45","West Third","Street","219",2127,434978,"45 West Third Street #219 02127"
"45","West Third","Street","223",2127,434982,"45 West Third Street #223 02127"
"45","West Third","Street","301",2127,434986,"45 West Third Street #301 02127"
"45","West Third","Street","302",2127,434987,"45 West Third Street #302 02127"
"45","West Third","Street","311",2127,434996,"45 West Third Street #311 02127"
"45","West Third","Street","325",2127,435010,"45 West Third Street #325 02127"
"45","West Third","Street","326",2127,435011,"45 West Third Street #326 02127"
"45","West Third","Street","425",2127,435039,"45 West Third Street #425 02127"
"312-320","West Third","Street","101",2127,135387,"312-320 West Third Street #101 02127"
"312-320","West Third","Street","202",2127,135394,"312-320 West Third Street #202 02127"
"1","Westinghouse","Plaza","206",2136,148470,"1 Westinghouse Plaza #206 02136"
"1","Westinghouse","Plaza","211",2136,148470,"1 Westinghouse Plaza #211 02136"
"1","Westinghouse","Plaza","212",2136,148470,"1 Westinghouse Plaza #212 02136"
"1","Westinghouse","Plaza","215",2136,148470,"1 Westinghouse Plaza #215 02136"
"1","Westinghouse","Plaza","217",2136,148470,"1 Westinghouse Plaza #217 02136"
"1","Westinghouse","Plaza","302",2136,148470,"1 Westinghouse Plaza #302 02136"
"1","Westinghouse","Plaza","304",2136,148470,"1 Westinghouse Plaza #304 02136"
"1","Westinghouse","Plaza","331",2134,148470,"1 Westinghouse Plaza #331 02134"
"43","Westland","Avenue","110",2115,421927,"43 Westland Avenue #110 02115"
"43","Westland","Avenue","314",2115,421927,"43 Westland Avenue #314 02115"
"11","Whipple","Avenue","6",2131,149123,"11 Whipple Avenue #6 02131"
"21","Wormwood","Street","210",2210,152705,"21 Wormwood Street #210 02210"
"21","Wormwood","Street","212",2210,152707,"21 Wormwood Street #212 02210"
"21","Wormwood","Street","217",2210,152712,"21 Wormwood Street #217 02210"
"21","Wormwood","Street","223",2210,152718,"21 Wormwood Street #223 02210"
"21","Wormwood","Street","301",2210,152721,"21 Wormwood Street #301 02210"
"21","Wormwood","Street","305",2210,152725,"21 Wormwood Street #305 02210"
"21","Wormwood","Street","306",2210,152726,"21 Wormwood Street #306 02210"
"21","Wormwood","Street","319",2210,152739,"21 Wormwood Street #319 02210"
"21","Wormwood","Street","406",2210,152751,"21 Wormwood Street #406 02210"
"21","Wormwood","Street","410",2210,152755,"21 Wormwood Street #410 02210"
"21","Wormwood","Street","419",2210,152764,"21 Wormwood Street #419 02210"
"21","Wormwood","Street","507",2210,152777,"21 Wormwood Street #507 02210"
"21","Wormwood","Street","519",2210,152789,"21 Wormwood Street #519 02210"
"21","Wormwood","Street","523",2210,152793,"21 Wormwood Street #523 02210"
"1241","Adams","Street","F104",2124,NA,"1241 Adams Street #F104 02124"
"1241","Adams","Street","F105",2124,NA,"1241 Adams Street #F105 02124"
"1241","Adams","Street","F107",2124,NA,"1241 Adams Street #F107 02124"
"1241","Adams","Street","F204",2124,NA,"1241 Adams Street #F204 02124"
"1241","Adams","Street","F205",2124,NA,"1241 Adams Street #F205 02124"
"1241","Adams","Street","F207",2124,NA,"1241 Adams Street #F207 02124"
"1241","Adams","Street","F304",2124,NA,"1241 Adams Street #F304 02124"
"1241","Adams","Street","F305",2124,NA,"1241 Adams Street #F305 02124"
"1241","Adams","Street","F307",2124,NA,"1241 Adams Street #F307 02124"
"1241","Adams","Street","F405",2124,NA,"1241 Adams Street #F405 02124"
"1243","Adams","Street","PM104",2124,NA,"1243 Adams Street #PM104 02124"
"1243","Adams","Street","PM204",2124,NA,"1243 Adams Street #PM204 02124"
"1243","Adams","Street","PM205",2124,NA,"1243 Adams Street #PM205 02124"
"1243","Adams","Street","PM304",2124,NA,"1243 Adams Street #PM304 02124"
"1243","Adams","Street","PM305",2124,NA,"1243 Adams Street #PM305 02124"
"42-44","Beach","Street","4C",2111,NA,"42-44 Beach Street #4C 02111"
"42-44","Beach","Street","5A",2111,NA,"42-44 Beach Street #5A 02111"
"110","Broad","Street","Loft 1",2110,NA,"110 Broad Street #Loft 1 02110"
"110","Broad","Street","Loft 2",2110,NA,"110 Broad Street #Loft 2 02110"
"110","Broad","Street","Loft 3",2110,NA,"110 Broad Street #Loft 3 02110"
"110","Broad","Street","Loft 4",2110,NA,"110 Broad Street #Loft 4 02110"
"110","Broad","Street","Loft 5",2110,NA,"110 Broad Street #Loft 5 02110"
"188","Brookline","Avenue","19F",2215,NA,"188 Brookline Avenue #19F 02215"
"60A","Business","Terrace","60A",2136,NA,"60A Business Terrace #60A 02136"
"10","Chestnut","Street",NA,2129,NA,"10 Chestnut Street #NA 02129"
"12","Chestnut","Street",NA,2129,NA,"12 Chestnut Street #NA 02129"
"23A","Circuit","Street","23-2",2119,NA,"23A Circuit Street #23-2 02119"
"23B","Circuit","Street","23-1",2119,NA,"23B Circuit Street #23-1 02119"
"27A","Circuit","Street","27-2",2119,NA,"27A Circuit Street #27-2 02119"
"37B","Circuit","Street","37-1",2119,NA,"37B Circuit Street #37-1 02119"
"39A","Circuit","Street","39-2",2119,NA,"39A Circuit Street #39-2 02119"
"39B","Circuit","Street","39-1",2119,NA,"39B Circuit Street #39-1 02119"
"41A","Circuit","Street","41-2",2119,NA,"41A Circuit Street #41-2 02119"
"41B","Circuit","Street","41-1",2119,NA,"41B Circuit Street #41-1 02119"
"47A","Circuit","Street","47-2",2119,NA,"47A Circuit Street #47-2 02119"
"47B","Circuit","Street","47-1",2119,NA,"47B Circuit Street #47-1 02119"
"141","Dorchester","Avenue","104",2127,NA,"141 Dorchester Avenue #104 02127"
"141","Dorchester","Avenue","110",2127,NA,"141 Dorchester Avenue #110 02127"
"141","Dorchester","Avenue","114",2127,NA,"141 Dorchester Avenue #114 02127"
"141","Dorchester","Avenue","203",2127,NA,"141 Dorchester Avenue #203 02127"
"141","Dorchester","Avenue","205",2127,NA,"141 Dorchester Avenue #205 02127"
"141","Dorchester","Avenue","208",2127,NA,"141 Dorchester Avenue #208 02127"
"141","Dorchester","Avenue","218",2127,NA,"141 Dorchester Avenue #218 02127"
"141","Dorchester","Avenue","304",2127,NA,"141 Dorchester Avenue #304 02127"
"141","Dorchester","Avenue","305",2127,NA,"141 Dorchester Avenue #305 02127"
"141","Dorchester","Avenue","310",2127,NA,"141 Dorchester Avenue #310 02127"
"141","Dorchester","Avenue","311",2127,NA,"141 Dorchester Avenue #311 02127"
"141","Dorchester","Avenue","316",2127,NA,"141 Dorchester Avenue #316 02127"
"141","Dorchester","Avenue","403",2127,NA,"141 Dorchester Avenue #403 02127"
"141","Dorchester","Avenue","404",2127,NA,"141 Dorchester Avenue #404 02127"
"141","Dorchester","Avenue","407",2127,NA,"141 Dorchester Avenue #407 02127"
"141","Dorchester","Avenue","418",2127,NA,"141 Dorchester Avenue #418 02127"
"141","Dorchester","Avenue","505",2127,NA,"141 Dorchester Avenue #505 02127"
"141","Dorchester","Avenue","604",2127,NA,"141 Dorchester Avenue #604 02127"
"3F","Dorchester","Street",NA,2127,NA,"3F Dorchester Street #NA 02127"
"82-84","East Brookline","Street","4",2118,NA,"82-84 East Brookline Street #4 02118"
"606","East Fourth","Street","102",2127,NA,"606 East Fourth Street #102 02127"
"606","East Fourth","Street","204",2127,NA,"606 East Fourth Street #204 02127"
"4B","Herman","Street","4B",2119,NA,"4B Herman Street #4B 02119"
"113A","Holton","Street","2",2135,NA,"113A Holton Street #2 02135"
"115A","Holton","Street","4",2127,NA,"115A Holton Street #4 02127"
"117A","Holton","Street","6",2127,NA,"117A Holton Street #6 02127"
"119A","Holton","Street","8",2127,NA,"119A Holton Street #8 02127"
"121A","Holton","Street","10",2130,NA,"121A Holton Street #10 02130"
"123A","Holton","Street","12",2114,NA,"123A Holton Street #12 02114"
"22","Liberty","Drive","3G",2210,NA,"22 Liberty Drive #3G 02210"
"22","Liberty","Drive","4J",2210,NA,"22 Liberty Drive #4J 02210"
"50","Liberty","Drive","3E",2210,NA,"50 Liberty Drive #3E 02210"
"50","Liberty","Drive","3I",2210,NA,"50 Liberty Drive #3I 02210"
"50","Liberty","Drive","4H",2210,NA,"50 Liberty Drive #4H 02210"
"50","Liberty","Drive","5H",2210,NA,"50 Liberty Drive #5H 02210"
"107","Litchfield","Street","19",2135,NA,"107 Litchfield Street #19 02135"
"101A","Litchfield","Street","14",2114,NA,"101A Litchfield Street #14 02114"
"103A","Litchfield","Street","16",2129,NA,"103A Litchfield Street #16 02129"
"105A","Litchfield","Street","18",2135,NA,"105A Litchfield Street #18 02135"
"107A","Litchfield","Street","20",2135,NA,"107A Litchfield Street #20 02135"
"67","Nightingale","Street","3B",2124,NA,"67 Nightingale Street #3B 02124"
"67","Nightingale","Street","4B",2124,NA,"67 Nightingale Street #4B 02124"
"152","Old Colony","Avenue","3",2127,NA,"152 Old Colony Avenue #3 02127"
"152","Old Colony","Avenue","5",2127,NA,"152 Old Colony Avenue #5 02127"
"152","Old Colony","Avenue","16",2127,NA,"152 Old Colony Avenue #16 02127"
"20","Penniman","Square","106",2134,NA,"20 Penniman Square #106 02134"
"20","Penniman","Square","107",2134,NA,"20 Penniman Square #107 02134"
"20","Penniman","Square","204",2134,NA,"20 Penniman Square #204 02134"
"20","Penniman","Square","205",2134,NA,"20 Penniman Square #205 02134"
"20","Penniman","Square","306",2134,NA,"20 Penniman Square #306 02134"
"20","Penniman","Square","405",2134,NA,"20 Penniman Square #405 02134"
"76","Pond","Street","P",2130,NA,"76 Pond Street #P 02130"
"64B","Regent","Street","64-1",2119,NA,"64B Regent Street #64-1 02119"
"66A","Regent","Street","66-2",2119,NA,"66A Regent Street #66-2 02119"
"18","Robert","Street","2",2131,NA,"18 Robert Street #2 02131"
"66","Saint George","Street","102",2119,NA,"66 Saint George Street #102 02119"
"66","Saint George","Street","103",2119,NA,"66 Saint George Street #103 02119"
"66","Saint George","Street","105",2119,NA,"66 Saint George Street #105 02119"
"66","Saint George","Street","106",2119,NA,"66 Saint George Street #106 02119"
"66","Saint George","Street","205",2119,NA,"66 Saint George Street #205 02119"
"66","Saint George","Street","207",2119,NA,"66 Saint George Street #207 02119"
"400","Stuart","Street","15L",2116,NA,"400 Stuart Street #15L 02116"
"101A","Thirteenth","Street",NA,2129,NA,"101A Thirteenth Street #NA 02129"
"101B","Thirteenth","Street",NA,2129,NA,"101B Thirteenth Street #NA 02129"
"77A","Thirteenth","Street",NA,2129,NA,"77A Thirteenth Street #NA 02129"
"77B","Thirteenth","Street",NA,2129,NA,"77B Thirteenth Street #NA 02129"
"79B","Thirteenth","Street",NA,2129,NA,"79B Thirteenth Street #NA 02129"
"81A","Thirteenth","Street",NA,2129,NA,"81A Thirteenth Street #NA 02129"
"81B","Thirteenth","Street",NA,2129,NA,"81B Thirteenth Street #NA 02129"
"83A","Thirteenth","Street",NA,2129,NA,"83A Thirteenth Street #NA 02129"
"83B","Thirteenth","Street",NA,2129,NA,"83B Thirteenth Street #NA 02129"
"85A","Thirteenth","Street",NA,2129,NA,"85A Thirteenth Street #NA 02129"
"85B","Thirteenth","Street",NA,2129,NA,"85B Thirteenth Street #NA 02129"
"87B","Thirteenth","Street",NA,2129,NA,"87B Thirteenth Street #NA 02129"
"89A","Thirteenth","Street",NA,2129,NA,"89A Thirteenth Street #NA 02129"
"89B","Thirteenth","Street",NA,2129,NA,"89B Thirteenth Street #NA 02129"
"91A","Thirteenth","Street",NA,2129,NA,"91A Thirteenth Street #NA 02129"
"91B","Thirteenth","Street",NA,2129,NA,"91B Thirteenth Street #NA 02129"
"93A","Thirteenth","Street",NA,2129,NA,"93A Thirteenth Street #NA 02129"
"93B","Thirteenth","Street",NA,2129,NA,"93B Thirteenth Street #NA 02129"
"95A","Thirteenth","Street",NA,2129,NA,"95A Thirteenth Street #NA 02129"
"95B","Thirteenth","Street",NA,2129,NA,"95B Thirteenth Street #NA 02129"
"97A","Thirteenth","Street",NA,2129,NA,"97A Thirteenth Street #NA 02129"
"97B","Thirteenth","Street",NA,2129,NA,"97B Thirteenth Street #NA 02129"
"99A","Thirteenth","Street",NA,2129,NA,"99A Thirteenth Street #NA 02129"
"99B","Thirteenth","Street",NA,2129,NA,"99B Thirteenth Street #NA 02129"
"21","Warren","Street",NA,2139,NA,"21 Warren Street #NA 02139"
"23B","Warren","Street",NA,2129,NA,"23B Warren Street #NA 02129"
"453","Washington","Street","5E",2111,NA,"453 Washington Street #5E 02111"
"1200","Washington","Street","108/110",2118,NA,"1200 Washington Street #108/110 02118"
"1200","Washington","Street","109/111",2118,NA,"1200 Washington Street #109/111 02118"
"1200","Washington","Street","112/114",2118,NA,"1200 Washington Street #112/114 02118"
"1200","Washington","Street","117/119",2118,NA,"1200 Washington Street #117/119 02118"
